agency,department,name,title,room_number,street_address,city,state,zip_code,telephone,fax,email_address,website,online_request_form,notes
Administrative Conference of the United States,Administrative Conference of the United States,Shawne McGibbon,FOIA Officer,Suite 706 South,"1120 20th Street, NW",Washington,DC,20036,(202) 480-2080,(202) 386-7190,smcgibbon@acus.gov,http://www.acus.gov/foia/,https://www.acus.gov/foia/request,
Administrative Conference of the United States,Administrative Conference of the United States,,FOIA Requester Service Center,,,,,,(202) 480-2080,,,,,
Administrative Conference of the United States,Administrative Conference of the United States,David Pritzker,FOIA Public Liaison,,,,,,(202) 480-2080,,mailto:dpritzker@acus.gov,,,
U.S. Agency for International Development,U.S. Agency for International Development,Alecia S. Sillah,"Team Lead, Government Information Specialist (FOIA), Bureau for Management, Office of Management Services, Information and Records Division",Room 2.7C RRB,"1300 Pennsylvania Avenue, N.W.",Washington,D.C.,20523-2701,(202) 712-0960,,mailto:FOIA@usaid.gov,http://www.usaid.gov/foia-requests,,
U.S. Agency for International Development,U.S. Agency for International Development,,FOIA Requester Service Center,,,,,,(202) 712-0960,,,,,
U.S. Agency for International Development,U.S. Agency for International Development,Lynn P. Winston,FOIA Public Liaison,,,,,,(202) 712-0960,,,,,
American Battle Monuments Commission,American Battle Monuments Commission,Martha R. Sell,FOIA Assistant,Suite 500,2300 Clarendon Boulevard,Arlington,VA,22201,(703) 696-6897,,,http://www.abmc.gov/foia,,
American Battle Monuments Commission,American Battle Monuments Commission,,FOIA Requester Service Center,,,,,,(703) 696-6897,,,,,
American Battle Monuments Commission,American Battle Monuments Commission,Timothy Nosal,FOIA Public Liaison,,,,,,(703) 696-6789,,,,,
AMTRAK (National Railroad Passenger Corporation),AMTRAK,Sharron H. Hawkins,Lead FOIA Specialist,,"60 Massachusetts Avenue, NE",Washington,DC,20002,(202) 906-3741,(202) 906-2004,mailto:foiarequests@amtrak.com,http://www.amtrak.com/servlet/ContentServer/Page/1241267362261/1241267362261,,
AMTRAK (National Railroad Passenger Corporation),AMTRAK,,FOIA Requester Service Center,,,,,,(202) 906-3740,,,,,
AMTRAK (National Railroad Passenger Corporation),AMTRAK,Sharron H. Hawkins,FOIA Public Liaison,,,,,,(202) 906-3740,,,,,
Armed Forces Retirement Home,Armed Forces Retirement Home,Pebbles P. Young,FOIA Officer,Box 580,"3700 North Capitol Street NW
P.O. Box 2875",Washington,DC,20011,(202) 541-7554,(202) 541-7508,mailto:Pebbles.Young@AFRH.Gov,https://www.afrh.gov/afrh/foia.htm,,
Armed Forces Retirement Home,Armed Forces Retirement Home,Pebbles P. Young,FOIA Requester Service Center,,,,,,(202) 541-7554,,,,,
Armed Forces Retirement Home,Armed Forces Retirement Home,Pebbles P. Young,FOIA Public Liaison,,,,,,(202) 541-7550,,,,,
Broadcasting Board of Governors,Broadcasting Board of Governors,Andrew T. Krog,"FOIA/Privacy Act Officer, BBG/FOIA/PA Unit",Room 3349,"330 Independence Avenue, SW",Washington,DC,20237,(202) 203-4550,(202) 203-4585,,http://www.bbg.gov/reports/foia/,,
Broadcasting Board of Governors,Broadcasting Board of Governors,Andrew T. Krog,FOIA Requester Service Center,Room 3349,"330 Independence Avenue, SW",Washington,DC,20237,(202) 203-4550,(202) 203-4585,,http://www.bbg.gov/reports/foia/,,
Broadcasting Board of Governors,Broadcasting Board of Governors,Andrew T. Krog,FOIA Public Liaison,Room 3349,"330 Independence Avenue, SW",Washington,DC,20237,(202) 203-4550,(202) 203-4585,,http://www.bbg.gov/reports/foia/,,
Central Intelligence Agency ,Central Intelligence Agency ,Michael Lavergne,Information and Privacy Coordinator,,Central Intelligence Agency,Washington,DC,20505,(703) 613-1287,(703) 613-3007,,http://www.foia.cia.gov/,,
Central Intelligence Agency ,Central Intelligence Agency ,,FOIA Requester Service Center,,FOIA Requester Service Center,Washington,DC,20505,(703) 613-1287,(703) 613-3007,,,,
Central Intelligence Agency ,Central Intelligence Agency ,"Scott Koch, Michael Lavergne",FOIA Public Liaison,,FOIA Requester Service Center,Washington,DC,20505,(703) 613-1287,(703) 613-3007,,,,
Chemical Safety and Hazard Investigation Board,Chemical Safety and Hazard Investigation Board,Michele Bouziane,CSB FOIA Officer,Suite 910,1750 Pennsylvania Avenue ,Washington,DC,20006,(202) 261-7619,(202) 261-7650,michele.bouziane@csb.gov,http://www.csb.gov/disclaimers/legal-affairs-foia/,,
Chemical Safety and Hazard Investigation Board,Chemical Safety and Hazard Investigation Board,,FOIA Requester Service Center,,,,,,(202) 261-7619,,,,,
Chemical Safety and Hazard Investigation Board,Chemical Safety and Hazard Investigation Board,Michele Bouziane,FOIA Public Liaison,,,,,,(202) 261-7619,,michele.bouziane@csb.gov,,,
Commission on Civil Rights,Commission on Civil Rights,Jennifer Cron Hepler,Attorney-Advisor,Suite 1150,"1331 Pennsylvania Ave, NW",Washington,DC,20425,(202) 376-8351,(202) 376-1163,mailto:foia@usccr.gov,http://www.usccr.gov/foia/index.php,,
Commission on Civil Rights,Commission on Civil Rights,,FOIA Requester Service Center,,,,,,(202) 376-8351,(202) 376-1163,mailto:foia@usccr.gov,,,
Commission on Civil Rights,Commission on Civil Rights,Brian Walch,FOIA Public Liaison,,,,,,(202) 376-8371,,,,,
Committee for Purchase from People Who Are Blind or Severely Disabled,Committee for Purchase from People Who Are Blind or Severely Disabled,Tina Ballard,Executive Director,Suite 715,1401 S. Clark St,Arlington ,VA,22202-4302,(703) 603-7740,,,"http://www.abilityone.gov/laws,_regulations_and_policy/foia.html",,
Committee for Purchase from People Who Are Blind or Severely Disabled,Committee for Purchase from People Who Are Blind or Severely Disabled,Wakita C. Wilson,FOIA Administrator,,,,,,(703) 603-7740,,mailto:FOIA@AbilityOne.gov,,,
Committee for Purchase from People Who Are Blind or Severely Disabled,Committee for Purchase from People Who Are Blind or Severely Disabled,Barry Lineback,FOIA Public Liaison,,,,,,(703) 603-7740,,mailto:blineback@abilityone.gov,,,
Commodity Futures Trading Commission,Commodity Futures Trading Commission,FOIA Contact,CFTC FOIA Office,Three Lafayette Centre,"1155 21st Street, N.W.",Washington,DC,20581,(202) 418-5497,(202) 418-5524,,http://www.cftc.gov/FOI/index.htm,,
Commodity Futures Trading Commission,Commodity Futures Trading Commission,,FOIA Requester Service Center,,,,,,(202) 418-5497,,,,,
Commodity Futures Trading Commission,Commodity Futures Trading Commission,Linda Mauldin,FOIA Public Liaison,,,,,,(202) 418-5497,,,,,
Consumer Financial Protection Bureau,Consumer Financial Protection Bureau,,Chief FOIA Officer,,"1700 G Street, NW",Washington,DC,20552,(855) 444-3642,(855) 329-3642,mailto:foia@cfpb.gov,http://www.consumerfinance.gov/foia/,,
Consumer Financial Protection Bureau,Consumer Financial Protection Bureau,,FOIA Requester Service Center,,,,,,(855) 444-3642,,,,,
Consumer Financial Protection Bureau,Consumer Financial Protection Bureau,Mark Vugrinovich,FOIA Public Liaison,,,,,,(202) 435-9499,,,,,
Consumer Product Safety Commission,Consumer Product Safety Commission,Alberta E. Mills,FOIA Officer,U.S. Consumer Product Safety Commission,4330 East West Highway,Bethesda,MD,20814-4408,(301) 504-7923,(301) 504-0127,mailto:cpsc-foia@cpsc.gov,http://www.cpsc.gov/en/Newsroom/FOIA/,,
Consumer Product Safety Commission,Consumer Product Safety Commission,Todd A. Stevenson,Chief FOIA Officer,U.S. Consumer Product Safety Commission,4330 East West Highway,Bethesda,MD,20814-4408,(301) 504-7923,(301) 504-0127,mailto:cpsc-foia@cpsc.gov,,,
Consumer Product Safety Commission,Consumer Product Safety Commission,Lynn Carter,FOIA Public Liaison,U.S. Consumer Product Safety Commission,4330 East West Highway,Bethesda,MD,20814-4408,(301) 504-6890,(301) 504-0127,mailto:lcarter@cpsc.gov,,,
Consumer Product Safety Commission,Consumer Product Safety Commission,Deborah Acosta,FOIA Public Liaison,U.S. Consumer Product Safety Commission,4330 East West Highway,Bethesda,MD,20814-4408,(301) 504-6821,(301) 504-0127,mailto:dacosta@cpsc.gov,,,
Corporation for National and Community Service,Corporation for National and Community Service,Stephanie A. Soper,"Freedom of Information Act Officer, Office of the General Counsel",Room 2253B,"250 E Street, SW",Washington,DC,20525,(202) 606-6747,(202) 606-3467,mailto:foia@cns.gov,http://www.nationalservice.gov/home/foia/index.asp,,
Corporation for National and Community Service,Corporation for National and Community Service,Stephanie A. Soper,FOIA Requester Service Center,Room 2253B,"250 E Street, SW",Washington,DC,20525,(202) 606-6747,(202) 606-3467,mailto:ssoper@cns.gov,,,
Corporation for National and Community Service,Corporation for National and Community Service,Wilsie Y. Minor,FOIA Public Liaison,Room 2254,"250 E Street, SW",Washington,DC,20525,(202) 606-6673,(202) 606-3467,mailto:wminor@cns.gov,,,
Council of the Inspectors General on Integrity and Efficiency,Council of the Inspectors General on Integrity and Efficiency,,FOIA Contact,Suite 825,"1717 H Street, NW",Washington,DC,20006,(202) 292-2600,(202) 254-0162,mailto:FOIAStaff@cigie.gov,http://www.ignet.gov/foia.html,,
Council of the Inspectors General on Integrity and Efficiency,Council of the Inspectors General on Integrity and Efficiency,,FOIA Requester Service Center,,,,,,(202) 616-0646,,,,,
Council of the Inspectors General on Integrity and Efficiency,Council of the Inspectors General on Integrity and Efficiency,Deborah Waller ,"Supervisory Government Information Specialist, Office of the Inspector General, U.S. Department of Justice",,,,,,(202) 616-0646,,,,,
Court Services and Offender Supervision Agency,Court Services and Offender Supervision Agency,Rochelle Carpenter,"Government Information Specialist, Office of the General Counsel",Room 1220,"633 Indiana Avenue, NW",Washington,DC,20004-2902,(202) 220-5300,(202) 220-5350,,http://www.csosa.gov/about/foia/overview.aspx,http://www.csosa.gov/about/foia/foia-request-form.aspx,
Court Services and Offender Supervision Agency,Court Services and Offender Supervision Agency,,FOIA Requester Service Center,,,,,,(202) 220-5300,,,,,
Court Services and Offender Supervision Agency,Court Services and Offender Supervision Agency,Rochelle Carpenter,FOIA Public Liaison,Room 1220,"633 Indiana Avenue, NW",Washington,DC,20004-2902,(202) 220-5300,(202) 220-5360,mailto:Rochelle.Carpenter@csosa.gov,,,
Defense Nuclear Facilities Safety Board,Defense Nuclear Facilities Safety Board,Katherine Herrera,Information/FOIA Officer,Suite 700,"625 Indiana Avenue, NW",Washington,DC,20004,(800) 788-4016,,mailto:FOIA@dnfsb.gov,http://www.dnfsb.gov/foia-reading-room,,
Defense Nuclear Facilities Safety Board,Defense Nuclear Facilities Safety Board,Katherine Herrera,FOIA Requester Service Center,,,,,,(800) 788-4016,,,,,
Defense Nuclear Facilities Safety Board,Defense Nuclear Facilities Safety Board,Katherine Herrera,FOIA Public Liaison,,,,,,(800) 788-4016,,,,,
National Headquarters,Environmental Protection Agency,Larry Gottesman,National Freedom of Information Officer,(2822T),"1200 Pennsylvania Avenue, NW",Washington,DC,20460,(202) 566-1667,,,http://www.epa.gov/foia/index.html,https://foiaonline.regulations.gov/foia/action/public/home,
National Headquarters,Environmental Protection Agency,,FOIA Requester Service Center,,,,,,(202) 566-1667,,,,,
National Headquarters,Environmental Protection Agency,Larry Gottesman,FOIA Public Liaison,Mail Code 2822T,"1200 Pennsylvania Avenue, NW",Washington,DC,20460,(202) 566-1667,,,,,
"Region 1 (States: CT, ME, MA, NH, RI, VT)",Environmental Protection Agency,Regional Freedom of Information Officer,"U.S. EPA, Region 1 (OARM01-6)",Suite 100,5 Post Office Square,Boston,MA,02109-3912,(617) 918-1102,,,http://www.epa.gov/ne/foia/index.html,http://www.epa.gov/foia/requestform.html,
"Region 1 (States: CT, ME, MA, NH, RI, VT)",Environmental Protection Agency,,FOIA Requester Service Center,,,,,,(617) 918-1102,,,,,
"Region 1 (States: CT, ME, MA, NH, RI, VT)",Environmental Protection Agency,Larry Gottesman,FOIA Public Liaison,Mail Code 2822T,"1200 Pennsylvania Avenue, NW",Washington,DC,20460,(202) 566-1667,,,,,
"Region 2 (States: NJ, NY, PR VI)",Environmental Protection Agency,Regional Freedom of Information Officer,"U.S. EPA, Region 2",26th Floor,290 Broadway,New York,NY,10007-1866,(212) 637-3668 ,,,http://www.epa.gov/region02/foia/index.html,http://www.epa.gov/foia/requestform.html,
"Region 2 (States: NJ, NY, PR VI)",Environmental Protection Agency,,FOIA Requester Service Center,,,,,,(212) 637-3668 ,,,,,
"Region 2 (States: NJ, NY, PR VI)",Environmental Protection Agency,Larry Gottesman,FOIA Public Liaison,Mail Code 2822T,"1200 Pennsylvania Avenue, NW",Washington,DC,20460,(202) 566-1667,,,,,
"Region 3 (States: DE, DC, MD, PA, VA, WV)",Environmental Protection Agency,Regional Freedom of Information Officer,"U.S. EPA, Region 3",(3C610),1650 Arch Street,Philadelphia,PA,19103,(215) 814-3424,,,http://www.epa.gov/region03/foia/index.html,http://www.epa.gov/foia/requestform.html,
"Region 3 (States: DE, DC, MD, PA, VA, WV)",Environmental Protection Agency,,FOIA Requester Service Center,,,,,,(215) 814-3424,,,,,
"Region 3 (States: DE, DC, MD, PA, VA, WV)",Environmental Protection Agency,Larry Gottesman,FOIA Public Liaison,Mail Code 2822T,"1200 Pennsylvania Avenue, NW",Washington,DC,20460,(202) 566-1667,,,,,
"Region 4 (States: AL, FL, GA, KY, MS, NC, SC, TN)",Environmental Protection Agency,Regional Freedom of Information Officer,"U.S. EPA, Region 4","AFC Building, 9th Floor (4PM/IF)","61 Forsyth Street, SW",Atlanta,GA,30303-8960,(404) 562-9891,,,http://www.epa.gov/region4/foiapgs,http://www.epa.gov/foia/requestform.html,
"Region 4 (States: AL, FL, GA, KY, MS, NC, SC, TN)",Environmental Protection Agency,,FOIA Requester Service Center,,,,,,(404) 562-9891,,,,,
"Region 4 (States: AL, FL, GA, KY, MS, NC, SC, TN)",Environmental Protection Agency,Larry Gottesman,FOIA Public Liaison,Mail Code 2822T,"1200 Pennsylvania Avenue, NW",Washington,DC,20460,(202) 566-1667,,,,,
"Region 5 (States: IL, IN, MI, MN, OH, WI)",Environmental Protection Agency,Regional Freedom of Information Officer,"U.S. EPA, Region 5",(MI-9),77 West Jackson Boulevard,Chicago,IL,60604-3590,(312) 886-6686,,,http://www.epa.gov/region5/foia.htm,http://www.epa.gov/foia/requestform.html,
"Region 5 (States: IL, IN, MI, MN, OH, WI)",Environmental Protection Agency,,FOIA Requester Service Center,,,,,,(312) 886-6686,,,,,
"Region 5 (States: IL, IN, MI, MN, OH, WI)",Environmental Protection Agency,Larry Gottesman,FOIA Public Liaison,Mail Code 2822T,"1200 Pennsylvania Avenue, NW",Washington,DC,20460,(202) 566-1667,,,,,
"Region 6 (States: AR, LA, NM, OK, TX)",Environmental Protection Agency,Regional Freedom of Information Officer,"U.S. EPA, Region 6",(6MD-OE),1445 Ross Avenue,Dallas,TX,75202-2733,(214) 665-7202,,,http://www.epa.gov/earth1r6/6md/foia/index.html,http://www.epa.gov/foia/requestform.html,
"Region 6 (States: AR, LA, NM, OK, TX)",Environmental Protection Agency,,FOIA Requester Service Center,,,,,,(214) 665-7202,,,,,
"Region 6 (States: AR, LA, NM, OK, TX)",Environmental Protection Agency,Larry Gottesman,FOIA Public Liaison,Mail Code 2822T,"1200 Pennsylvania Avenue, NW",Washington,DC,20460,(202) 566-1667,,,,,
"Region 7 (States: IA, KS, MO, NE)",Environmental Protection Agency,Regional Freedom of Information Officer,"U.S. EPA, Region 7",,11201 Renner Boulevard,Lenexa,KS,66219,(913) 551-7860,,,http://www.epa.gov/region07/citizens/foia/index.htm,http://www.epa.gov/foia/requestform.html,
"Region 7 (States: IA, KS, MO, NE)",Environmental Protection Agency,,FOIA Requester Service Center,,,,,,(913) 551-7860,,,,,
"Region 7 (States: IA, KS, MO, NE)",Environmental Protection Agency,Larry Gottesman,FOIA Public Liaison,Mail Code 2822T,"1200 Pennsylvania Avenue, NW",Washington,DC,20460,(202) 566-1667,,,,,
"Region 8 (States: CO, MT, ND, SD, UT, WY)",Environmental Protection Agency,Regional Freedom of Information Officer,"U.S. EPA, Region 8",,1595 Wynkoop Street,Denver,CO,80202-1129,(303) 312-6856,,,http://www.epa.gov/region8/foia/index.html,http://www.epa.gov/foia/requestform.html,
"Region 8 (States: CO, MT, ND, SD, UT, WY)",Environmental Protection Agency,,FOIA Requester Service Center,,,,,,(303) 312-6856,,,,,
"Region 8 (States: CO, MT, ND, SD, UT, WY)",Environmental Protection Agency,Larry Gottesman,FOIA Public Liaison,Mail Code 2822T,"1200 Pennsylvania Avenue, NW",Washington,DC,20460,(202) 566-1667,,,,,
"Region 9 (States: AZ, CA, HI, NV, AS, GU)",Environmental Protection Agency,Regional Freedom of Information Officer,"U.S. EPA, Region 9",(OPPA-2),75 Hawthorne Street,San Francisco,CA,94105,(415) 947-4251,,,http://www.epa.gov/region09/foia/index.html,http://www.epa.gov/foia/requestform.html,
"Region 9 (States: AZ, CA, HI, NV, AS, GU)",Environmental Protection Agency,,FOIA Requester Service Center,,,,,,(415) 947-4251,,,,,
"Region 9 (States: AZ, CA, HI, NV, AS, GU)",Environmental Protection Agency,Larry Gottesman,FOIA Public Liaison,Mail Code 2822T,"1200 Pennsylvania Avenue, NW",Washington,DC,20460,(202) 566-1667,,,,,
"Region 10 (States: AK, ID, OR, WA)",Environmental Protection Agency,Regional Freedom of Information Officer,"U.S. EPA, Region 10",Office of External Affairs ,1200 6th Avenue (CEC-142),Seattle ,WA,98101,(206) 553-8665,,,http://yosemite.epa.gov/r10/extaff.nsf/webpage/freedom+of+information+act,http://www.epa.gov/foia/requestform.html,
"Region 10 (States: AK, ID, OR, WA)",Environmental Protection Agency,,FOIA Requester Service Center,,,,,,(206) 553-8665,,,,,
"Region 10 (States: AK, ID, OR, WA)",Environmental Protection Agency,Larry Gottesman,FOIA Public Liaison,Mail Code 2822T,"1200 Pennsylvania Avenue, NW",Washington,DC,20460,(202) 566-1667,,,,,
I don't know which office,Environmental Protection Agency,Larry Gottesman,National Freedom of Information Officer,(2822T),"1200 Pennsylvania Avenue, NW",Washington,DC,20460,(202) 566-1667,,,http://www.epa.gov/foia/index.html,http://www.epa.gov/foia/requestform.html,
I don't know which office,Environmental Protection Agency,,FOIA Requester Service Center,,,,,,(202) 566-1667,,,,,
I don't know which office,Environmental Protection Agency,Larry Gottesman,FOIA Public Liaison,Mail Code 2822T,"1200 Pennsylvania Avenue, NW",Washington,DC,20460,(202) 566-1667,,,,,
Headquarters,Equal Employment Opportunity Commission,Stephanie Garner,Assistant Legal Counsel/FOIA,Suite 5NW02E,"131 M Street, NE",Washington,DC,20507,"(202) 663-4634, (202) 663-7026 (TTY)",(202) 653-6034,mailto:FOIA@EEOC.gov,http://www.eeoc.gov/eeoc/foia/,,
Headquarters,Equal Employment Opportunity Commission,,FOIA Requester Service Center,,,,,,"(202) 663-4500, (202) 663-7026 (TTY)",(202) 653-6034,mailto:FOIA@EEOC.gov,,,
Headquarters,Equal Employment Opportunity Commission,Stephanie Garner,FOIA Public Liaison,,,,,,"(202) 663-4634, (202) 663-7026 (TTY)",(202) 653-6034,,,,
Atlanta District Office (Savanna Local Office),Equal Employment Opportunity Commission,Nadetia Williams,Enforcement Manager,Suite 4R30,"100 Alabama Street, SW",Atlanta,GA,30303,"(404) 562-6835, (404) 562-6801 (TTY)",(404) 562-6909,mailto:ATLAFOIA@eeoc.gov,http://www.eeoc.gov/field/atlanta/foia.cfm,,
Atlanta District Office (Savanna Local Office),Equal Employment Opportunity Commission,,FOIA Requester Service Center,,,,,,"(202) 663-4500, (202) 663-7026 (TTY)",(202) 653-6034,mailto:FOIA@EEOC.gov,,,
Atlanta District Office (Savanna Local Office),Equal Employment Opportunity Commission,Stephanie Garner,FOIA Public Liaison,,,,,,"(202) 663-4634, (202) 663-7026 (TTY)",(202) 653-6034,,,,
"Birmingham District Office (Mobile Local Office, Jackson Area Office)",Equal Employment Opportunity Commission,Toniko Noland,Records Disclosure Coordinator,"Ridge Park Place, Suite 2000",1130 22nd Street,Birmingham,AL,35205,"(205) 212-2069, (205) 212-2112 (TTY)",(205) 212-2105,mailto:BIRMFOIA@eeoc.gov,http://www.eeoc.gov/field/birmingham/foia.cfm,,
"Birmingham District Office (Mobile Local Office, Jackson Area Office)",Equal Employment Opportunity Commission,,FOIA Requester Service Center,,,,,,"(202) 663-4500, (202) 663-7026 (TTY)",(202) 653-6034,mailto:FOIA@EEOC.gov,,,
"Birmingham District Office (Mobile Local Office, Jackson Area Office)",Equal Employment Opportunity Commission,Stephanie Garner,FOIA Public Liaison,,,,,,"(202) 663-4634, (202) 663-7026 (TTY)",(202) 653-6034,,,,
"Charlotte District Office (Greensboro; Greenville, Norfolk, Richmond Local Offices; Raleigh Area Office",Equal Employment Opportunity Commission,Francine Michaelson,Records Disclosure Coordinator,Suite 400,129 West Trade Street,Charlotte,NC,28202,(704)954-6424,(704) 344-6734,mailto:CHARFOIA@eeoc.gov,http://www.eeoc.gov/field/charlotte/foia.cfm,,
"Charlotte District Office (Greensboro; Greenville, Norfolk, Richmond Local Offices; Raleigh Area Office",Equal Employment Opportunity Commission,,FOIA Requester Service Center,,,,,,"(202) 663-4500, (202) 663-7026 (TTY)",(202) 653-6034,mailto:FOIA@EEOC.gov,,,
"Charlotte District Office (Greensboro; Greenville, Norfolk, Richmond Local Offices; Raleigh Area Office",Equal Employment Opportunity Commission,Stephanie Garner,FOIA Public Liaison,,,,,,"(202) 663-4634, (202) 663-7026 (TTY)",(202) 653-6034,,,,
Chicago District Office (Milwaukee and Minneapolis Area Offices),Equal Employment Opportunity Commission,Sylvia Bustos,Records Disclosure Coordinator,Suite 2000,500 West Madison Street,Chicago,IL,60661,"(312) 869-8084, (312) 369-8001 (TTY)",(312) 869-8220,mailto: CHICFOIA@eeoc.gov,http://www.eeoc.gov/field/chicago/foia.cfm,,
Chicago District Office (Milwaukee and Minneapolis Area Offices),Equal Employment Opportunity Commission,,FOIA Requester Service Center,,,,,,"(202) 663-4500, (202) 663-7026 (TTY)",(202) 653-6034,mailto:FOIA@EEOC.gov,,,
Chicago District Office (Milwaukee and Minneapolis Area Offices),Equal Employment Opportunity Commission,Stephanie Garner,FOIA Public Liaison,,,,,,"(202) 663-4634, (202) 663-7026 (TTY)",(202) 653-6034,,,,
"Dallas District Office (San Antonio Field Office, El Paso Area Office)",Equal Employment Opportunity Commission,Kelly Melton,Records Disclosure Coordinator,3rd Floor,207 S. Houston Street,Dallas,TX,75202-4726,"(214) 253-2780, (214) 253-2710 (TTY)",(214) 253-2749,mailto: DALLASFOIA@eeoc.gov,http://www.eeoc.gov/field/dallas/foia.cfm,,
"Dallas District Office (San Antonio Field Office, El Paso Area Office)",Equal Employment Opportunity Commission,,FOIA Requester Service Center,,,,,,"(202) 663-4500, (202) 663-7026 (TTY)",(202) 653-6034,mailto:FOIA@EEOC.gov,,,
"Dallas District Office (San Antonio Field Office, El Paso Area Office)",Equal Employment Opportunity Commission,Stephanie Garner,FOIA Public Liaison,,,,,,"(202) 663-4634, (202) 663-7026 (TTY)",(202) 653-6034,,,,
Houston District Office (New Orleans Field Office),Equal Employment Opportunity Commission,Vy Nguyen,Records Disclosure Coordinator,6th Floor,1202 Louisiana St.,Houston,TX,77002-8049,"(713) 209-3416, (713) 209-3439 (TTY)",(713) 209-3381,mailto;HOUSFOIA@eeoc.gov,http://www.eeoc.gov/field/houston/foia.cfm,,
Houston District Office (New Orleans Field Office),Equal Employment Opportunity Commission,,FOIA Requester Service Center,,,,,,"(202) 663-4500, (202) 663-7026 (TTY)",(202) 653-6034,mailto:FOIA@EEOC.gov,,,
Houston District Office (New Orleans Field Office),Equal Employment Opportunity Commission,Stephanie Garner,FOIA Public Liaison,,,,,,"(202) 663-4634, (202) 663-7026 (TTY)",(202) 653-6034,,,,
"Indianapolis District Office (Detroit Field Office, Cincinnati and Louisville Area Offices)",Equal Employment Opportunity Commission,Donnae Williams,Records Disclosure Coordinator,Suite 1900,101 West Ohio Street,Indianapolis,IN,46204-4203,"(317) 226-7952, (317) 226-5162 (TTY)",(317) 226-7953,mailto; INDIFOIA@eeoc.gov,http://www.eeoc.gov/field/indianapolis/foia.cfm,,
"Indianapolis District Office (Detroit Field Office, Cincinnati and Louisville Area Offices)",Equal Employment Opportunity Commission,,FOIA Requester Service Center,,,,,,"(202) 663-4500, (202) 663-7026 (TTY)",(202) 653-6034,mailto:FOIA@EEOC.gov,,,
"Indianapolis District Office (Detroit Field Office, Cincinnati and Louisville Area Offices)",Equal Employment Opportunity Commission,Stephanie Garner,FOIA Public Liaison,,,,,,"(202) 663-4634, (202) 663-7026 (TTY)",(202) 653-6034,,,,
"Los Angeles District Office (Fresno, Honolulu, Las Vegas, and San Diego Local Offices)",Equal Employment Opportunity Commission,Karen Reuter,Records Disclosure Coordinator,4th Floor,255 E. Temple Street,Los Angeles,CA,90012,"(213) 894-1042, (213) 894-1121",(213) 894-1118,mailto:LOSAFOIA@eeoc.gov,http://www.eeoc.gov/field/losangeles/foia.cfm,,
"Los Angeles District Office (Fresno, Honolulu, Las Vegas, and San Diego Local Offices)",Equal Employment Opportunity Commission,,FOIA Requester Service Center,,,,,,"(202) 663-4500, (202) 663-7026 (TTY)",(202) 653-6034,mailto:FOIA@EEOC.gov,,,
"Los Angeles District Office (Fresno, Honolulu, Las Vegas, and San Diego Local Offices)",Equal Employment Opportunity Commission,Stephanie Garner,FOIA Public Liaison,,,,,,"(202) 663-4634, (202) 663-7026 (TTY)",(202) 653-6034,,,,
Memphis District Office (Little Rock and Nashville Area Offices),Equal Employment Opportunity Commission,Clarence Manuel,Enforcement Manager,Suite 900,1407 Union Avenue,Memphis,TN,38104,"(901) 544-0100, (901) 544-0112 (TTY)",(901) 544-0111,mailto:MEMPFOIA@eeoc.gov,http://www.eeoc.gov/field/memphis/foia.cfm,,
Memphis District Office (Little Rock and Nashville Area Offices),Equal Employment Opportunity Commission,,FOIA Requester Service Center,,,,,,"(202) 663-4500, (202) 663-7026 (TTY)",(202) 653-6034,mailto:FOIA@EEOC.gov,,,
Memphis District Office (Little Rock and Nashville Area Offices),Equal Employment Opportunity Commission,Stephanie Garner,FOIA Public Liaison,,,,,,"(202) 663-4634, (202) 663-7026 (TTY)",(202) 653-6034,,,,
Miami District Office (Tampa Field Office and San Juan Local Office),Equal Employment Opportunity Commission,Carmen Figueroa-Martinez,Records Disclosure Coordinator,Suite 1500,100 SE Street,Miami,FL,33131,"(787) 771-1471, (305) 808-1742 (TTY)",(305) 808-1855,mailto: MIAMFOIA@eeoc.gov,http://www.eeoc.gov/field/miami/foia.cfm,,
Miami District Office (Tampa Field Office and San Juan Local Office),Equal Employment Opportunity Commission,,FOIA Requester Service Center,,,,,,"(202) 663-4500, (202) 663-7026 (TTY)",(202) 653-6034,mailto:FOIA@EEOC.gov,,,
Miami District Office (Tampa Field Office and San Juan Local Office),Equal Employment Opportunity Commission,Stephanie Garner,FOIA Public Liaison,,,,,,"(202) 663-4634, (202) 663-7026 (TTY)",(202) 653-6034,,,,
"New York District Office (Boston and Newark Area Offices, Buffalo Local Office)",Equal Employment Opportunity Commission,David Phillips,Records Disclosure Coordinator,5th Floor,33 Whitehall Street,New York,NY,10004,"(212) 336-3644, (212) 336-3622 (TTY)",(212) 336-3625,mailto:NEWYFOIA@eeoc.gov,http://www.eeoc.gov/field/newyork/foia.cfm,,
"New York District Office (Boston and Newark Area Offices, Buffalo Local Office)",Equal Employment Opportunity Commission,,FOIA Requester Service Center,,,,,,"(202) 663-4500, (202) 663-7026 (TTY)",(202) 653-6034,mailto:FOIA@EEOC.gov,,,
"New York District Office (Boston and Newark Area Offices, Buffalo Local Office)",Equal Employment Opportunity Commission,Stephanie Garner,FOIA Public Liaison,,,,,,"(202) 663-4634, (202) 663-7026 (TTY)",(202) 653-6034,,,,
"Philadelphia District Office (Baltimore and Cleveland Field Offices, Pittsburgh Area Office)",Equal Employment Opportunity Commission,Sameera McNeil,Records Disclosure Coordinator,Suite 1300,801 Market Street,Philadelphia,PA,19107-3127,(215)440-2840,(215) 440-2606,mailto:PHILFOIA@eeoc.gov,http://www.eeoc.gov/field/philadelphia/foia.cfm,,
"Philadelphia District Office (Baltimore and Cleveland Field Offices, Pittsburgh Area Office)",Equal Employment Opportunity Commission,,FOIA Requester Service Center,,,,,,"(202) 663-4500, (202) 663-7026 (TTY)",(202) 653-6034,mailto:FOIA@EEOC.gov,,,
"Philadelphia District Office (Baltimore and Cleveland Field Offices, Pittsburgh Area Office)",Equal Employment Opportunity Commission,Stephanie Garner,FOIA Public Liaison,,,,,,"(202) 663-4634, (202) 663-7026 (TTY)",(202) 653-6034,,,,
"Phoenix District Office (Denver Field Office, Albuquerque Area Office)",Equal Employment Opportunity Commission,Joseph Stier,Records Disclosure Officer,Suite 690,3300 N. Central Avenue,Phoenix,AZ,85012-2504 ,"(602) 640-5012, (602) 640-5072 (TTY)",(602) 640-5071,mailto: PHOENIXFOIA@eeoc.gov,http://www.eeoc.gov/field/phoenix/foia.cfm,,
"Phoenix District Office (Denver Field Office, Albuquerque Area Office)",Equal Employment Opportunity Commission,,FOIA Requester Service Center,,,,,,"(202) 663-4500, (202) 663-7026 (TTY)",(202) 653-6034,mailto:FOIA@EEOC.gov,,,
"Phoenix District Office (Denver Field Office, Albuquerque Area Office)",Equal Employment Opportunity Commission,Stephanie Garner,FOIA Public Liaison,,,,,,"(202) 663-4634, (202) 663-7026 (TTY)",(202) 653-6034,,,,
"San Francisco District Office (Seattle Field Office, Oakland and San Jose Local Offices)",Equal Employment Opportunity Commission,Vincent Clark,Records Disclosure Coordinator,Suite 500,450 Golden Gate Avenue,San Francisco,CA,94102-3661,"(415) 522-3144, (510) 735-8909 (TTY)",(415) 522-3415,mailto:SANFFOIA@eeoc.gov,http://www.eeoc.gov/field/sanfrancisco/foia.cfm,,
"San Francisco District Office (Seattle Field Office, Oakland and San Jose Local Offices)",Equal Employment Opportunity Commission,,FOIA Requester Service Center,,,,,,"(202) 663-4500, (202) 663-7026 (TTY)",(202) 653-6034,mailto:FOIA@EEOC.gov,,,
"San Francisco District Office (Seattle Field Office, Oakland and San Jose Local Offices)",Equal Employment Opportunity Commission,Stephanie Garner,FOIA Public Liaison,,,,,,"(202) 663-4634, (202) 663-7026 (TTY)",(202) 653-6034,,,,
St. Louis District Office (Kansas City and Oklahoma Area Offices),Equal Employment Opportunity Commission,Sherlyn Metzler,Records Disclosure Coordinator,Room 8100,1222 Spruce Street,St. Louis,MO,63103,(314)539-7908,(314) 539-7050,mailto:STLOFOIA@eeoc.gov,http://www.eeoc.gov/field/stlouis/foia.cfm,,
St. Louis District Office (Kansas City and Oklahoma Area Offices),Equal Employment Opportunity Commission,,FOIA Requester Service Center,,,,,,"(202) 663-4500, (202) 663-7026 (TTY)",(202) 653-6034,mailto:FOIA@EEOC.gov,,,
St. Louis District Office (Kansas City and Oklahoma Area Offices),Equal Employment Opportunity Commission,Stephanie Garner,FOIA Public Liaison,,,,,,"(202) 663-4634, (202) 663-7026 (TTY)",(202) 653-6034,,,,
Washington Field Office,Equal Employment Opportunity Commission,Louise Dixon,Records Disclosure Coordinator,Suite 4NE29F,"131 M Street, NE",Washington,DC,20507,(202) 419-0721,(202) 419-0740,mailto:WASHFOIA@eeoc.gov,http://www.eeoc.gov/field/washington/foia.cfm,,
Washington Field Office,Equal Employment Opportunity Commission,,FOIA Requester Service Center,,,,,,(202) 663-4500,(202) 663-4679,mailto:FOIA@EEOC.gov,,,
Washington Field Office,Equal Employment Opportunity Commission,Stephanie Garner,FOIA Public Liaison,,,,,,"(202) 663-4634, (202) 663-7026 (TTY)",(202) 653-6034,,,,
I don't know which office,Equal Employment Opportunity Commission,Stephanie Garner,"Assistant Legal Counsel/FOIA, OLC/FOIA Programs",Suite 5NW02E,"131 M Street, NE",Washington,DC,20507,"(202) 663-4634, (202) 663-7026 (TTY)",(202) 653-6034,mailto:FOIA@EEOC.gov,http://www.eeoc.gov/eeoc/foia/,,
I don't know which office,Equal Employment Opportunity Commission,,FOIA Requester Service Center,,,,,,"(202) 663-4500, (202) 663-7026 (TTY)",(202) 653-6034,mailto:FOIA@EEOC.gov,,,
I don't know which office,Equal Employment Opportunity Commission,Stephanie Garner,FOIA Public Liaison,,,,,,"(202) 663-4634, (202) 663-7026 (TTY)",(202) 653-6034,,,,
Council on Environmental Quality,Executive Office of the President,Brooke Dorner,Chief FOIA Officer/Attorney-Advisor,,"722 Jackson Place, NW",Washington,DC,20503,(202)456-6224,(202) 456-0753,mailto:efoia@ceq.eop.gov,https://www.whitehouse.gov/administration/eop/ceq/foia/,,
Council on Environmental Quality,Executive Office of the President,,FOIA Requester Service Center,,,,,,(202)456-6224,(202) 456-0753,mailto:efoia@ceq.eop.gov,,,
Council on Environmental Quality,Executive Office of the President,Brooke Dorner,FOIA Public Liaison,,,,,,(202)456-6224,(202) 456-0753,mailto:efoia@ceq.eop.gov,,,
Office of Management and Budget,Executive Office of the President,Dionne Hardy,FOIA Officer,Room 9026,"725 17th Street, NW",Washington,DC,20503,(202) 395-3642,(202) 395-3504,mailto:OMBFOIA@omb.eop.gov,http://www.whitehouse.gov/omb/foia_default,,
Office of Management and Budget,Executive Office of the President,,FOIA Requester Service Center,,,,,,(202) 395-3642,,,,,
Office of Management and Budget,Executive Office of the President,Lauren Wright,FOIA Public Liaison,,,,,,(202) 395-7250,,,,,
Office of National Drug Control Policy,Executive Office of the President,Michael Passante,Chief FOIA Officer,,750 17th Street NW,Washington,DC,20503,(202) 395-6622,(202) 395-5543,,http://www.whitehouse.gov/ondcp/freedom-of-information-act-requests,,
Office of National Drug Control Policy,Executive Office of the President,Sandy Slater,FOIA Requester Service Center,,750 17th Street NW,Washington,DC,20503,(202) 395-6622,,,,,
Office of National Drug Control Policy,Executive Office of the President,Michael Passante,FOIA Public Liaison,,750 17th Street NW,Washington,DC,20503,(202) 395-6622,,,,,
Office of Science and Technology Policy,Executive Office of the President,Rachael Leonard,General Counsel,,"1650 Pennsylvania Avenue, NW",Washington,DC,20502,(202) 456- 4444,(202) 395-1224,ostpfoia@ostp.eop.gov,https://www.whitehouse.gov/administration/eop/ostp/library/foia/,,
Office of Science and Technology Policy,Executive Office of the President,Jennifer Lee,FOIA Requester Service Center,,"1650 Pennsylvania Avenue, NW",Washington,DC,20502,(202) 456- 4444,,ostpfoia@ostp.eop.gov,https://www.whitehouse.gov/administration/eop/ostp/library/foia/,,
Office of Science and Technology Policy,Executive Office of the President,Jennifer Lee,FOIA Public Liaison,,"1650 Pennsylvania Avenue, NW",Washington,DC,20502,(202) 456- 4444,,ostpfoia@ostp.eop.gov,https://www.whitehouse.gov/administration/eop/ostp/library/foia/,,
Office of the United States Trade Representative,Executive Office of the President,Melissa J. Keppel,FOIA Officer,513,1724 F Street NW,Washington,DC,20508,(202) 395-3419,(202) 395-9458,foia@ustr.eop.gov,http://www.ustr.gov/about-us/reading-room/freedom-information-act-foia,,
Office of the United States Trade Representative,Executive Office of the President,Jacqueline B. Caldwell,FOIA Requester Service Center,514,1724 F Street NW,Washington,DC,20508,(202) 395-3419,(202) 395-9458,foia@ustr.eop.gov,,,
Office of the United States Trade Representative,Executive Office of the President,Jacqueline B. Caldwell,FOIA Public Liaison,514,1724 F Street NW,Washington,DC,20508,(202) 395-3419,(202) 395-9458,foia@ustr.eop.gov,,,
Export-Import Bank of the U.S.,Export-Import Bank of the U.S.,Lennell C. Jackson,FOIA Contact,,"811 Vermont Avenue, NW",Washington,DC,20571,(202) 565-3290,(202) 565-3294,mailto:foia@exim.gov,http://www.exim.gov/about/foia,http://www.exim.gov/about/foia/foia-request-form,
Export-Import Bank of the U.S.,Export-Import Bank of the U.S.,,FOIA Requester Service Center,,,,,,(202) 565-3290,,,,http://www.exim.gov/about/foia/foia-request-form,
Export-Import Bank of the U.S.,Export-Import Bank of the U.S.,Lennell C. Jackson,FOIA Public Liaison,,,,,,(202) 565-3290,,mailto:foia@exim.gov,,,
Farm Credit Administration,Farm Credit Administration,Autumn R. Agans,FOIA Officer,,1501 Farm Credit Drive,McLean,VA,22102-5090,(703) 883-4082,(703) 790-0052,mailto:foiaofficer@fca.gov,http://www.fca.gov/home/freedom_info.html,,
Farm Credit Administration,Farm Credit Administration,Sheree Derocher,FOIA Requester Service Center,,,,,,(703) 883-4048,,mailto:FOIArequesterservicecenter@fca.gov,,,
Farm Credit Administration,Farm Credit Administration,Christine D. Quinn,FOIA Public Liaison,,,,,,(703) 883-4056,,mailto:foiapublicliaison@fca.gov,,,
Farm Credit System Insurance Corporation,Farm Credit System Insurance Corporation,Autumn R. Agans,Freedom of Information Officer,,1501 Farm Credit Drive,McLean,VA,22102-5090,(703) 883-4082,(703) 790-0052,mailto:FCSICFOIAOfficer@fcsic.gov,http://www.fcsic.gov/FCSIC%20FOIA.html,,
Farm Credit System Insurance Corporation,Farm Credit System Insurance Corporation,Sheree Derocher,FOIA Requester Service Center,,,,,,(703) 883-4048,,mailto:FCSICFOIArequesterservicecenter@fcsic.gov,,,
Farm Credit System Insurance Corporation,Farm Credit System Insurance Corporation,Christine D. Quinn,FOIA Public Liaison,,,,,,(703) 883-4020,,mailto:FCSICfoiapublicliaison@fcsic.gov,,,
Federal Communications Commission,Federal Communications Commission,Vanessa Lamb,Deputy Associate Managing Director - FOIA Program,Room 1-A834,"445 12th Street, SW",Washington,DC,20554,(202) 418-0440,(202) 418-0521,mailto:FOIA@fcc.gov,http://www.fcc.gov/foia/,"http://transition.fcc.gov/foia/#reqform",
Federal Communications Commission,Federal Communications Commission,,FOIA Requester Service Center,,,,,,(202) 418-0440,,,,,
Federal Communications Commission,Federal Communications Commission,Stephanie Kost,FOIA Public Liaison,,,,,,(202) 418-1379,,mailto:Stephanie.Kost@fcc.gov ,,,
Federal Deposit Insurance Corporation,Federal Deposit Insurance Corporation,FOIA Contact,"Legal Division, FOIA/PA Group",,"550 17th Street, NW",Washington,DC,20429,(202) 898-7021,(703) 562-2797,mailto:efoia@fdic.gov,http://www.fdic.gov/about/freedom/index.html,https://efoiarequest.fdic.gov/palMain.aspx?protocol=https,
Federal Deposit Insurance Corporation,Federal Deposit Insurance Corporation,,FOIA Requester Service Center,,,,,,(202) 898-7021,,,,,
Federal Deposit Insurance Corporation,Federal Deposit Insurance Corporation,Gordon Talbot,FOIA Public Liaison,,,,,,(703) 562-6040,,mailto:cwebster@fdic.gov,,,
Federal Election Commission,Federal Election Commission,FOIA Contact,FOIA Requester Service Center,Room 408,"999 E Street, NW",Washington,DC,20463,(202) 694-1650,(202) 219-1043,mailto:FOIA@fec.gov,http://www.fec.gov/press/foia.shtml,,
Federal Election Commission,Federal Election Commission,Candace Salley,FOIA Requester Service Center,,,,,,(202) 694-1650,,,,,
Federal Election Commission,Federal Election Commission,Kate Higginbothom,FOIA Public Liaison,,,,,,(202) 694-1650,,mailto:khigginbothom@fec.gov,,,
Federal Energy Regulatory Commission,Federal Energy Regulatory Commission,,FOIA Contact,,"888 First Street NE, Code EA1",Washington,DC,20426,(202) 502-6088; Toll Free: 1-866-208-3372,(202) 208-2106,mailto:foia-ceii@ferc.gov,http://www.ferc.gov/legal/ceii-foia.asp,http://www.ferc.gov/legal/ceii-foia/foia/foia-new-form/FOIARequest.aspx,
Federal Energy Regulatory Commission,Federal Energy Regulatory Commission,,FOIA Requester Service Center,,,,,,(202) 502-6088,,,,,
Federal Energy Regulatory Commission,Federal Energy Regulatory Commission,Toyia Johnson,FOIA Public Liaison,,,,,,(202) 502-6088,,,,,
Federal Financial Institutions Examination Council,Federal Financial Institutions Examination Council,Judith E. Dupre,Executive Secretary,B7081a,3501 Fairfax Drive,Arlington ,VA,22226-3550,(703) 516-5590,(703) 562-6446,mailto:FOIA@ffiec.gov,http://www.ffiec.gov/foia.htm,,
Federal Financial Institutions Examination Council,Federal Financial Institutions Examination Council,,FOIA Requester Service Center,,,,,,(703) 516-5591,,,,,
Federal Financial Institutions Examination Council,Federal Financial Institutions Examination Council,Rosanna Piccirilli,FOIA Public Liaison,,,,,,(703) 516-5591,,mailto:FOIA@ffiec.gov,,,
Federal Housing Finance Agency,Federal Housing Finance Agency,Stacy J. Easter,FOIA Officer,Constitution Center,"400 7th Street, SW",Washington,DC,20219,(202) 649-3803,(202) 649-1073,mailto:FOIA@fhfa.gov,http://www.fhfa.gov/AboutUs/FOIAPrivacy/Pages/FOIA.aspx,https://www.publicaccesslink.fhfa.gov/palMain.aspx,
Federal Housing Finance Agency,Federal Housing Finance Agency,,FOIA Requester Service Center,,,,,,(202) 649-3803,(202) 649-1073,,,,
Federal Housing Finance Agency,Federal Housing Finance Agency,Stacy J. Easter,FOIA Public Liaison,,,,,,(202) 649-3803,,,,,
The Authority,Federal Labor Relations Authority,Fred B. Jacob,"Solicitor, Office of the Solicitor",,"1400 K Street, NW",Washington ,DC,20424,(202) 218-7770,(202) 343-1007,mailto:solmail@flra.gov,http://www.flra.gov/FOIA,,
The Authority,Federal Labor Relations Authority,,FOIA Requester Service Center,,,,,,(202) 218-7770,,,,,
The Authority,Federal Labor Relations Authority,,FOIA Public Liaison,,,,,,,,,,,
Office of the General Counsel,Federal Labor Relations Authority,,FOIA Contact,,"1400 K Street, NW",Washington ,DC,20424,(202) 218-7910,(202) 482-6608,mailto:ogcmail@flra.gov,http://www.flra.gov/FOIA,,
Office of the General Counsel,Federal Labor Relations Authority,,FOIA Requester Service Center,,,,,,(202) 218-7910,,,,,
Office of the General Counsel,Federal Labor Relations Authority,,FOIA Public Liaison,,,,,,,,,,,
Atlanta Regional Office,Federal Labor Relations Authority,,FOIA Contact,Suite 701,285 Peachtree Center Avenue,Atlanta,GA,30303-1270,(404) 331-5300,(404) 331-5280,mailto:aromail@flra.gov,http://www.flra.gov/FOIA,,
Atlanta Regional Office,Federal Labor Relations Authority,,FOIA Requester Service Center,,,,,,(404) 331-5300,,,,,
Atlanta Regional Office,Federal Labor Relations Authority,,FOIA Public Liaison,,,,,,,,,,,
Boston Regional Office,Federal Labor Relations Authority,,FOIA Contact,Suite 472,10 Causeway Street,Boston,MA,02222,(617) 565-5100,(617) 565-6262,mailto:bromail@flra.gov,http://www.flra.gov/FOIA,,
Boston Regional Office,Federal Labor Relations Authority,,FOIA Requester Service Center,,,,,,(617) 565-5100,,,,,
Boston Regional Office,Federal Labor Relations Authority,,FOIA Public Liaison,,,,,,,,,,,
Chicago Regional Office,Federal Labor Relations Authority,,FOIA Contact,Suite 1150,55 West Monroe Street,Chicago,IL,60603-9729,(312) 886-3465,(312) 886-5977,mailto:cromail@flra.gov,http://www.flra.gov/FOIA,,
Chicago Regional Office,Federal Labor Relations Authority,,FOIA Requester Service Center,,,,,,(312) 886-3465,,,,,
Chicago Regional Office,Federal Labor Relations Authority,,FOIA Public Liaison,,,,,,,,,,,
Dallas Regional Office,Federal Labor Relations Authority,,FOIA Contact,"Suite 926, LB 107",525 Griffin Street,Dallas,TX,75202-1906,(214) 767-6266,(214) 767-0156,mailto:daromail@flra.gov,http://www.flra.gov/FOIA,,
Dallas Regional Office,Federal Labor Relations Authority,,FOIA Requester Service Center,,,,,,(214) 767-6266,,,,,
Dallas Regional Office,Federal Labor Relations Authority,,FOIA Public Liaison,,,,,,,,,,,
Denver Regional Office,Federal Labor Relations Authority,,FOIA Contact,Suite 100,1244 Speer Boulevard,Denver,CO,80204-3581,(303) 844-5226,(303) 844-2774,mailto:daromail@flra.gov,http://www.flra.gov/FOIA,,
Denver Regional Office,Federal Labor Relations Authority,,FOIA Requester Service Center,,,,,,(303) 844-5226,,,,,
Denver Regional Office,Federal Labor Relations Authority,,FOIA Public Liaison,,,,,,,,,,,
San Francisco Regional Office,Federal Labor Relations Authority,,FOIA Contact,Suite 220,901 Market Street,San Francisco,CA,94103-1791,(415) 356-5000,(415) 356-5017,mailto:sromail@flra.gov,http://www.flra.gov/foia_contact,,
San Francisco Regional Office,Federal Labor Relations Authority,,FOIA Requester Service Center,,,,,,(415) 356-5000,,,,,
San Francisco Regional Office,Federal Labor Relations Authority,,FOIA Public Liaison,,,,,,,,,,,
Washington Regional Office,Federal Labor Relations Authority,,FOIA Contact,2nd Floor,"1400 K Street, NW",Washington ,DC,25424-0001,(202) 482-6700,(202) 482-6724,mailto:wromail@flra.gov,http://www.flra.gov/foia_contact,,
Washington Regional Office,Federal Labor Relations Authority,,FOIA Requester Service Center,,,,,,(202) 482-6700,,,,,
Washington Regional Office,Federal Labor Relations Authority,,FOIA Public Liaison,,,,,,,,,,,
The Federal Service Impasses Panel,Federal Labor Relations Authority,,FOIA Contact,,"1400 K Street, NW",Washington ,DC,20424,(202) 218-7790,(202) 482-6674,mailto:fsipmail@flra.gov,http://www.flra.gov/foia_contact,,
The Federal Service Impasses Panel,Federal Labor Relations Authority,,FOIA Requester Service Center,,,,,,(202) 218-7790,,,,,
The Federal Service Impasses Panel,Federal Labor Relations Authority,,FOIA Public Liaison,,,,,,,,,,,
Office of the Inspector General,Federal Labor Relations Authority,,FOIA Contact,,"1400 K Street, NW",Washington ,DC,20424,"(202) 218-7770 (ext. 7744), (202) 218-7970",(202) 482-0573,mailto:oigmail@flra.gov,http://www.flra.gov/foia_contact,,
Office of the Inspector General,Federal Labor Relations Authority,,FOIA Requester Service Center,,,,,,"(202) 218-7770 (ext. 7744), (202) 218-7970",,,,,
Office of the Inspector General,Federal Labor Relations Authority,,FOIA Public Liaison,,,,,,,,,,,
I don't know which office,Federal Labor Relations Authority,Fred B. Jacob,"Solicitor, Office of the Solicitor",,"1400 K Street, NW",Washington ,DC,20424,(202) 218-7770,(202) 343-1007,mailto:solmail@flra.gov,http://www.flra.gov/FOIA,,
I don't know which office,Federal Labor Relations Authority,,FOIA Requester Service Center,,,,,,(202) 218-7770,,,,,
I don't know which office,Federal Labor Relations Authority,Gina Grippando,FOIA Public Liaison,,,,,,(202) 218-7776,,mailto:ggrippando@flra.gov,,,
Federal Maritime Commission,Federal Maritime Commission,Karen Gregory,Secretary,,"800 North Capitol Street, NW",Washington,DC,20573,(202) 523-5725,(202) 523-0014,mailto:FOIA@fmc.gov,http://www.fmc.gov/about/freedom_of_information_act.aspx,,
Federal Maritime Commission,Federal Maritime Commission,Linda Hale,FOIA Requester Service Center,,,,,,(202) 523-5707,,,,,
Federal Maritime Commission,Federal Maritime Commission,Rachel Dickon,FOIA Public Liaison,,,,,,(202) 523-5725,,,,,
Federal Mediation and Conciliation Service,Federal Mediation and Conciliation Service,Jeannette Walters-Marquez,Chief FOIA Officer,,"2100 K Street, NW",Washington,DC,20427,(202) 606-5488,(202) 606-5345,foia@fmcs.gov,http://www.fmcs.gov/internet/itemDetailNoNav.asp?categoryID=90&itemID=16303,,
Federal Mediation and Conciliation Service,Federal Mediation and Conciliation Service,,FOIA Requester Service Center,,"2100 K Street, NW",Washington,DC,20427,(202) 606-5444,(202) 606-5345,foia@fmcs.gov,http://www.fmcs.gov/internet/itemDetailNoNav.asp?categoryID=90&itemID=16303,,
Federal Mediation and Conciliation Service,Federal Mediation and Conciliation Service,Jeannette Walters-Marquez,FOIA Public Liaison,,"2100 K Street, NW",Washington,DC,20427,(202) 606-5488,(202) 606-5345,foia@fmcs.gov,http://www.fmcs.gov/internet/itemDetailNoNav.asp?categoryID=90&itemID=16303,,
Federal Mine Safety and Health Review Commission,Federal Mine Safety and Health Review Commission,Stacey Demps-Barrett,Chief FOIA Officer,Suite 520N,"1331 Pennsylvania, NW",Washington,DC,20004-1710,(202) 434-9935,(202) 434-9949,foia@fmshrc.gov,http://www.fmshrc.gov/foia,http://www.fmshrc.gov/foia/foia-request-form,
Federal Mine Safety and Health Review Commission,Federal Mine Safety and Health Review Commission,,FOIA Requester Service Center,,,,,,(202) 434-9935,,,,,
Federal Mine Safety and Health Review Commission,Federal Mine Safety and Health Review Commission,Emogene Johnson,FOIA Public Liaison,,,,,,(202) 434-9935,,,,,
Federal Open Market Committee,Federal Open Market Committee,Matthew Luecke,Chief FOIA Officer,Mail Stop 55,"20th & Constitution Avenue, NW",Washington,DC,20551,(202) 452-2576,(202) 452-2921,,http://www.federalreserve.gov/foia/fomc/about_fomcfoia.htm,http://www.federalreserve.gov/forms/fomcform.aspx,
Federal Open Market Committee,Federal Open Market Committee,,FOMC FOIA Service Center,,,,,,(202) 973-7400,(202) 452-2921,,http://www.federalreserve.gov/foia/fomc/about_fomcfoia.htm,http://www.federalreserve.gov/forms/fomcform.aspx,
Federal Open Market Committee,Federal Open Market Committee,David Caperton,FOIA Public Liaison,Mail Stop K1-PL00,1801 K Street NW,Washington,DC,20006,(202) 452-2899,,,,,
Federal Reserve System,Federal Reserve System,Jeanne McLaughlin,FOIA Manager,,"20th & Constitution Avenue, NW",Washington,DC,20551,(202) 452-3684,(202) 872-7565,,http://www.federalreserve.gov/generalinfo/foia/default.cfm,http://www.federalreserve.gov/generalinfo/foia/EFOIA/EFOIAForm.cfm,
Federal Reserve System,Federal Reserve System,,FOIA Requester Service Center,,,,,,(202) 452-3684,,,,,
Federal Reserve System,Federal Reserve System,Jeanne McLaughlin,FOIA Public Liaison,,,,,,(202) 452-2407,,mailto:Alison.M.Thro@frb.gov,,,
Federal Retirement Thrift Investment Board,Federal Retirement Thrift Investment Board,Dharmesh Vashee,Chief FOIA Officer,10th Floor,"77 K Street, NE",Washington,DC,20002,(202) 942-1600,(202) 942-1676,foiarequest@tsp.gov,http://www.frtib.gov/ReadingRoom/index.html,,
Federal Retirement Thrift Investment Board,Federal Retirement Thrift Investment Board,Amanda Haas,FOIA Requester Service Center,10th Floor,"77 K Street, NE",Washington,DC,20002,(202) 942-1600,(202) 942-1676,,,,
Federal Retirement Thrift Investment Board,Federal Retirement Thrift Investment Board,Megan Grumbine,FOIA Public Liaison,10th Floor,"77 K Street, NE",Washington,DC,20002,(202) 942-1600,(202) 942-1676,,,,
Federal Trade Commission,Federal Trade Commission,Dione Stearns,Assistant General Counsel for Information & Legal Support,,"600 Pennsylvania Avenue, NW H-585",Washington,DC,20580,(202) 326-2735,(202) 326-2477,mailto:foia@ftc.gov,http://www.ftc.gov/foia/,https://foia.ftc.gov/ftc/foia.htm,
Federal Trade Commission,Federal Trade Commission,FOIA Office,FOIA Hotline,,"600 Pennsylvania Avenue, NW H-585",Washington,DC,20580,(202) 326-2430,(202) 326-2477,,,,
Federal Trade Commission,Federal Trade Commission,Richard Gold,FOIA Public Liaison,,"600 Pennsylvania Avenue, NW H-585",Washington,DC,20580,(202) 326-3355,(202) 326-2477,,,,
Headquarters,General Services Administration,FOIA Contact,FOIA Requester Service Center (H1C),Room 7308,"1800 F. Street, NW",Washington,DC,20405,,(202) 501-2727,gsa.foia@gsa.gov,http://www.gsa.gov/portal/category/21416,https://foiaonline.regulations.gov/foia/action/public/home,
Headquarters,General Services Administration,,FOIA Requester Service Center,,,,,,(855) 675-3642,,,,,
Headquarters,General Services Administration,Travis Lewis,Program Manager,,,,,,(202) 219-3078,,,,,
Headquarters,General Services Administration,Audrey Corbett Brooks,FOIA Public Liaison,,,,,,(202) 205-5912,,,,,
Institute of Museum and Library Services,Institute of Museum and Library Services,Gladstone Payton,FOIA Officer,9th Floor,"1800 M Street, NW",Washington,DC,20036-5802,(202) 653-4628,(202) 653-4600,mailto:gpayton@imls,http://www.imls.gov/about/freedom_of_information_act_foia.aspx,,
Institute of Museum and Library Services,Institute of Museum and Library Services,Mae Ridges,FOIA Processor,,,,,,(202) 653-4642,,mailto:mridges@imls.gov,,,
Institute of Museum and Library Services,Institute of Museum and Library Services,Gladstone Payton,FOIA Public Liaison,,,,,,(202) 653-4628,,mailto:gpayton@imls,,,
Institute of Museum and Library Services,Institute of Museum and Library Services,Mae Ridges,FOIA Public Liaison,,,,,,(202) 653-4642,,mailto:mridges@imls.gov,,,
Inter-American Foundation,Inter-American Foundation,Paul Zimmerman,General Counsel,"12th Floor North, Suite 1200","1331 Pennsylvania, NW",Washington,DC,20004,(202) 683-7118,,foia@iaf.gov,http://iaf.gov/about-the-iaf/legal-notices-and-reports/freedom-of-information-act-foia,,
Inter-American Foundation,Inter-American Foundation,,FOIA Requester Service Center,,,,,,(202) 683-7118,,,,,
Inter-American Foundation,Inter-American Foundation,Lesley Duncan,FOIA Public Liaison,,,,,,(202) 688-3047,,lduncan@iaf.gov,,,
Legal Services Corporation,Legal Services Corporation,Cheryl DuHart,FOIA Analyst,3rd Floor,"3333 K Street, NW",Washington,DC,20007,(202) 295-1500,(202) 337-6519,FOIA@lsc.gov,http://www.lsc.gov/about-lsc/foia,,
Legal Services Corporation,Legal Services Corporation,,FOIA Requester Service Center,,,,,,(202) 295-1500,,,,,
Legal Services Corporation,Legal Services Corporation,Cheryl DuHart,FOIA Public Liaison,,,,,,(202) 295-1500,,,,,
Headquarters,Merit Systems Protection Board,William Spencer,"Acting FOIA Public Liaison, Office of the Clerk",,"1615 M Street, NW",Washington,DC,20419,(202) 254-4475,(202) 653-7130,FOIAHQ@mspb.gov,http://www.mspb.gov/FOIA/foia.htm,https://foiaonline.regulations.gov/foia/action/public/home,
Headquarters,Merit Systems Protection Board,William Spencer,FOIA Requester Service Center,,,,,,(202) 254-4475,,,,,
Headquarters,Merit Systems Protection Board,William Spencer,Acting FOIA Public Liaison,,,,,,(202) 254-4475,,,,,
Atlanta Regional Office,Merit Systems Protection Board,Yvonnie Ellis,FOIA Liaison,10th Floor,"401 W. Peachtree Street, NW",Atlanta,GA,20208-3519,(404) 730-2755 ext. 8019,(404) 730-2767,FOIAAT@mspb.gov,"http://www.mspb.gov/contact/contact.htm#FOIA",https://foiaonline.regulations.gov/foia/action/public/home,
Atlanta Regional Office,Merit Systems Protection Board,William Spencer,FOIA Requester Service Center,,,,,,(202) 254-4475,,,,,
Atlanta Regional Office,Merit Systems Protection Board,William Spencer,Acting FOIA Public Liaison,,,,,,(202) 254-4475,,,,,
Central Regional Office,Merit Systems Protection Board,William Spencer,Acting FOIA Liaison,31st Floor,230 South Dearborn Street,Chicago,IL,60604-1669,(312) 353-2924 ext. 3113,(313) 886-4231,FOIACH@mspb.gov,"http://www.mspb.gov/contact/contact.htm#FOIA",https://foiaonline.regulations.gov/foia/action/public/home,
Central Regional Office,Merit Systems Protection Board,William Spencer,FOIA Requester Service Center,,,,,,(202) 254-4475,,,,,
Central Regional Office,Merit Systems Protection Board,William Spencer,Acting FOIA Public Liaison,,,,,,(312) 353-2924 ext. 3113,,,,,
Washington DC Regional Office,Merit Systems Protection Board,Marie Sumner,FOIA Liaison,Suite 950,1901 S. Bell Street,Arlington,VA,22202,(703) 756-7104 ext. 4109,(703) 756-7112,FOIADC@mspb.gov,"http://www.mspb.gov/contact/contact.htm#FOIA",https://foiaonline.regulations.gov/foia/action/public/home,
Washington DC Regional Office,Merit Systems Protection Board,William Spencer,FOIA Requester Service Center,,,,,,(202) 254-4475,,,,,
Washington DC Regional Office,Merit Systems Protection Board,William Spencer,Acting FOIA Public Liaison,,,,,,(202) 254-4474,,,,,
Northeastern Regional Office,Merit Systems Protection Board,Dennis Matthews,FOIA Liaison,Suite 1700,1601 Market Street,Philadelphia,PA,19103,(215) 597-9960 ext. 7108,(215) 597-3456,FOIAPH@mspb.gov,"http://www.mspb.gov/contact/contact.htm#FOIA",https://foiaonline.regulations.gov/foia/action/public/home,
Northeastern Regional Office,Merit Systems Protection Board,William Spencer,FOIA Requester Service Center,,,,,,(202) 254-4475,,,,,
Northeastern Regional Office,Merit Systems Protection Board,William Spencer,Acting FOIA Public Liaison,,,,,,(202) 254-4475,,,,,
Dallas Regional Office,Merit Systems Protection Board,Ann Fluellen,FOIA Liaison,Room 620,1100 Commerce Street,Dallas,TX,75242-9979,(214) 767-0810 ext. 5100,(214) 767-0102,FOIADA@mspb.gov,"http://www.mspb.gov/contact/contact.htm#FOIA",https://foiaonline.regulations.gov/foia/action/public/home,
Dallas Regional Office,Merit Systems Protection Board,William Spencer,FOIA Requester Service Center,,,,,,(202) 254-4475,,,,,
Dallas Regional Office,Merit Systems Protection Board,William Spencer,Acting FOIA Public Liaison,,,,,,(214) 767-0810 ext. 5100,,,,,
Western Regional Office,Merit Systems Protection Board,Nancy Bui,FOIA Liaison,Suite 2130,201 Mission Street,San Francisco,CA,94105-1831,(415) 904-6772 ext. 2101,(415) 904-0580,FOIASF@mspb.gov,"http://www.mspb.gov/contact/contact.htm#FOIA",https://foiaonline.regulations.gov/foia/action/public/home,
Western Regional Office,Merit Systems Protection Board,William Spencer,FOIA Requester Service Center,,,,,,(202) 254-4475,,,,,
Western Regional Office,Merit Systems Protection Board,William Spencer,Acting FOIA Public Liaison,,,,,,(202) 254-4475,,,,,
New York Field Office,Merit Systems Protection Board,Gwendolyn Gatling,FOIA Liaison,Room 3137-A,26 Federal Plaza,New York,NY,10278-0022,(212) 264-6183 ext. 7504,(212) 264-1417,FOIANY@mspb.gov,"http://www.mspb.gov/contact/contact.htm#FOIA",https://foiaonline.regulations.gov/foia/action/public/home,
New York Field Office,Merit Systems Protection Board,William Spencer,FOIA Requester Service Center,,,,,,(202) 254-4475,,,,,
New York Field Office,Merit Systems Protection Board,William Spencer,Acting FOIA Public Liaison,,,,,,(202) 254-4475,,,,,
Denver Field Office,Merit Systems Protection Board,Nicole Remmich,FOIA Liaison,Suite 318,165 South Union Boulevard,Lakewood,CO,80228-2211,(303) 969-5101 ext. 6104,(303) 969-5109,FOIADE@mspb.gov,"http://www.mspb.gov/contact/contact.htm#FOIA",https://foiaonline.regulations.gov/foia/action/public/home,
Denver Field Office,Merit Systems Protection Board,William Spencer,FOIA Requester Service Center,,,,,,(202) 254-4475,,,,,
Denver Field Office,Merit Systems Protection Board,William Spencer,Acting FOIA Public Liaison,,,,,,(202) 254-4475,,,,,
Millennium Challenge Corporation,Millennium Challenge Corporation,Tamiko Walker,Chief FOIA Officer,,"875 15th Street, NW",Washington,DC,20005,(202) 521-7235,,foia@mcc.gov,http://www.mcc.gov/pages/foia,,
Millennium Challenge Corporation,Millennium Challenge Corporation,,FOIA Requester Service Center,,,,,,(202) 521-7235,,,,,
Millennium Challenge Corporation,Millennium Challenge Corporation,,Acting FOIA Public Liaison,,,,,,(202) 521-7235,,,,,
Headquarters,National Aeronautics and Space Administration,Josephine Sibley,HQFOIA Officer,Room 5Q 16,"300 E Street, SW",S.W. Washington,DC,20546,(202) 358-2462,(202) 358-4332,foia@hq.nasa.gov,http://www.hq.nasa.gov/office/pao/FOIA/index.htm,http://www.hq.nasa.gov/office/pao/FOIA/request.html,
Headquarters,National Aeronautics and Space Administration,,FOIA Requester Service Center,Mail Stop 5-L19,"300 E Street, SW",S.W. Washington,DC,20546,(202) 358-2562,,,,,
Headquarters,National Aeronautics and Space Administration,Josephine Sibley,FOIA Public Liaison,,,,,,(202) 358-2462,,foia@hq.nasa.gov,,,
Ames Research Center,National Aeronautics and Space Administration,Martha Terry,ARC FOIA Officer,Room 5Q14,"300 E Street, SW",S.W. Washington,DC,20546,(202) 358-2339,(202) 358-4332,foia@arc.nasa.gov,http://www.hq.nasa.gov/office/pao/FOIA/index.htm,,
Ames Research Center,National Aeronautics and Space Administration,,FOIA Requester Service Center,Mail Stop 5-L19,,Moffett Field,CA,94035-1000,(202) 358-2339,,,,,
Ames Research Center,National Aeronautics and Space Administration,Martha Terry,FOIA Public Liaison,Mail Stop 5-L19,,,,,(202) 358-2339,,foia@arc.nasa.gov,,,
Armstrong Flight Research Center,National Aeronautics and Space Administration,Kim Lewis-Bias,AFRC FOIA Officer,Building 4839,4800 Lily Drive,Edwards,CA,93523,(661) 276-2704,(661) 276-3566,dfrc-foia@nasa.gov,http://www.hq.nasa.gov/office/pao/FOIA/index.htm,,
Armstrong Flight Research Center,National Aeronautics and Space Administration,,FOIA Requester Service Center,P.O. Box 273,,Edwards,CA,93523,(661) 276-2704,,,,,
Armstrong Flight Research Center,National Aeronautics and Space Administration,Kim Lewis-Bias,FOIA Public Liaison,,,,,,(661) 276-2704,,afrc-foia@nasa.gov,,,
Glenn Research Center,National Aeronautics and Space Administration,Jaclyn Facinelli,GRC FOIA Officer,,Mail Code 21-14,Cleveland,OH,44135,(216) 443-2315,(216) 433-5489,grc-foia@nasa.gov,http://www.grc.nasa.gov/WWW/FOIA/FOIA.htm,,
Glenn Research Center,National Aeronautics and Space Administration,,FOIA Requester Service Center,,2100 Brookpark Road,Cleveland,OH,44135,(216) 443-2315,,,,,
Glenn Research Center,National Aeronautics and Space Administration,Jaclyn Facinelli,FOIA Public Liaison,,,,,,(216) 443-2315,,grc-foia@nasa.gov,,,
Goddard Space Flight Center,National Aeronautics and Space Administration,Joan Belt,GSFC FOIA Officer,,Code 130,Greenbelt,MD,20771,(301) 286-4271,(301) 286-1712,foia@gsfc.nasa.gov,http://www.nasa.gov/centers/goddard/business/foia/index.html,"http://www.nasa.gov/centers/goddard/business/foia/e-foia.html#efoia",
Goddard Space Flight Center,National Aeronautics and Space Administration,,FOIA Requester Service Center,,Code 130,Greenbelt,MD,20771,(301) 286-4271,,,,,
Goddard Space Flight Center,National Aeronautics and Space Administration,Joan Belt,FOIA Public Liaison,,,,,,(301) 286-4271,,mailto:foia@gsfc.nasa.gov,,,
Jet Propulsion Laboratory,National Aeronautics and Space Administration,Dennis Mahon,JPL FOIA Officer,M/S: 180-200K,4800 Oak Grove,Pasadena,CA,91109-8001,(818) 393-6779,(818) 393-3160,jpl-foia@nasa.gov,http://nmo.nasa.gov/cfm_nasa/foia.cfm,https://nmo.nasa.gov/foia/foia_requester.cfm?CFID=231001&CFTOKEN=98756504,
Jet Propulsion Laboratory,National Aeronautics and Space Administration,,FOIA Requester Service Center,,4800 Oak Grove,Pasadena,CA,91109-8001,(818) 393-6779,,,,,
Jet Propulsion Laboratory,National Aeronautics and Space Administration,Dennis Mahon,FOIA Public Liaison,,,,,,(818) 393-6779,,jpl-foia@nasa.gov,,,
Johnson Space Center,National Aeronautics and Space Administration,Jessica Cordero,JSC FOIA Officer,,Mail Code: AP2,Houston,TX,77058,(281) 483-8252,(281) 483-4876,jsc-foia@mail.nasa.gov,http://www.nasa.gov/centers/johnson/news/foia.html,,
Johnson Space Center,National Aeronautics and Space Administration,,FOIA Requester Service Center,,Mail Code: AP2,Houston,TX,77058,(281) 483-8252,,,,,
Johnson Space Center,National Aeronautics and Space Administration,Jessica Cordero,FOIA Public Liaison,,,,,,(281) 483-8252,,stella.luna-1@nasa.gov,,,
Kennedy Space Center,National Aeronautics and Space Administration,Penny Myers,KSC FOIA Officer,,XA-A1,Kennedy Space Center,FL,32889,(321) 867-9280,(321) 867-8007,foia@ksc.nasa.gov,http://www.nasa.gov/centers/kennedy/about/foia/index.html,http://www-foiacf.ksc.nasa.gov/requester.cfm,
Kennedy Space Center,National Aeronautics and Space Administration,,FOIA Requester Service Center,,XA-A1,Kennedy Space Center,FL,32889,(321) 867-9280,,,,,
Kennedy Space Center,National Aeronautics and Space Administration,Penny Myers,FOIA Public Liaison,,,,,,(321) 867-9280,,foia@ksc.nasa.gov,,,
Langley Research Center,National Aeronautics and Space Administration,Carissa Wheeler,LaRC FOIA Officer,Mail Stop 218,17 West Taylor Street,Hampton,VA,23681-2199,(757) 864-4274,(757) 864-6333,LARC-DL-foia@mail.nasa.gov,http://foia.larc.nasa.gov/,,
Langley Research Center,National Aeronautics and Space Administration,,FOIA Requester Service Center,Mail Stop 218,17 West Taylor Street,Hampton,VA,23681-2199,(757) 864-4274,,,,,
Langley Research Center,National Aeronautics and Space Administration,Carissa Wheeler,FOIA Public Liaison,,,,,,(757) 864-4274,,LARC-DL-foia@mail.nasa.gov,,,
Marshall Space Flight Center,National Aeronautics and Space Administration,Judi Hollingsworth,MSFC FOIA Officer,Mail Stop CD50,Marshall Space Flight Center,Huntsville,AL,35812,(256) 544-1837,(256) 544-007,FOIA@msfc.nasa.gov,http://foia.msfc.nasa.gov/,http://foia.msfc.nasa.gov/form.html,
Marshall Space Flight Center,National Aeronautics and Space Administration,,FOIA Requester Service Center,Mail Stop CD50,Marshall Space Flight Center,Huntsville,AL,35812,(256) 544-1837,,,,,
Marshall Space Flight Center,National Aeronautics and Space Administration,Judi Hollingsworth,FOIA Public Liaison,,,,,,(256) 544-1837,,FOIA@msfc.nasa.gov,,,
Office of the Inspector General,National Aeronautics and Space Administration,Frank LaRocca,OIG FOIA Officer,Room 8V69,"300 E Street, SW",S.W. Washington,DC,20546,(202) 358-2582,(202) 358-2767,foiaoig@hq.nasa.gov,http://oig.nasa.gov/FOIA_requests.html,http://oig.nasa.gov/FOIA_request_electronic.html,
Office of the Inspector General,National Aeronautics and Space Administration,,FOIA Requester Service Center,,"300 E Street, SW",S.W. Washington,DC,20546,(202) 358-2582,,,,,
Office of the Inspector General,National Aeronautics and Space Administration,Frank LaRocca,FOIA Public Liaison,,,,,,(202) 358-2582,,,,,
NASA Shared Service Center (NSSC),National Aeronautics and Space Administration,Jamie Mettler,NSSC FOIA Officer,Building 1111,,Stennis Space Center,MS,39529,(228) 813-6490,(228) 779-6772,nssc@nasa.gov,http://www.nssc.nasa.gov/foia/,,
NASA Shared Service Center (NSSC),National Aeronautics and Space Administration,Jamie Mettler,NSSC FOIA Officer,Building 1111,,Stennis Space Center,MS,39529,(228) 813-6490,(228) 779-6772,nssc@nasa.gov,http://www.nssc.nasa.gov/foia/,,
NASA Shared Service Center (NSSC),National Aeronautics and Space Administration,,FOIA Requester Service Center,Building 5100,,Stennis Space Center,MS,39529,(228) 813-6174,,,,,
NASA Shared Service Center (NSSC),National Aeronautics and Space Administration,Jamie Mettler,FOIA Public Liaison,,,,,,(228) 813-6174,,nssc@nasa.gov,,,
Stennis Space Center,National Aeronautics and Space Administration,Sally Bilbo,SSC FOIA Officer,,,Stennis Space Center,MS,39529,(228) 688-3182,(228) 668-7499,foia@ssc.nasa.gov,http://www.nasa.gov/centers/stennis/about/foia/index.html,,
Stennis Space Center,National Aeronautics and Space Administration,,FOIA Requester Service Center,,,Stennis Space Center,MS,39529,(228) 688-3182,,,,,
Stennis Space Center,National Aeronautics and Space Administration,Sally Bilbo,FOIA Public Liaison,,,,,,(228) 688-3182,,,,,
Principal Agency FOIA Officer,National Aeronautics and Space Administration,Miriam Brown-Lam,Agency ,Room 5P 32,"300 E Street, SW",S.W. Washington,DC,20546,(202) 358-0718,(202) 358-4332,foia@hq.nasa.gov,http://www.hq.nasa.gov/office/pao/FOIA/agency/,http://www.hq.nasa.gov/office/pao/FOIA/request.html,
Principal Agency FOIA Officer,National Aeronautics and Space Administration,,FOIA Requester Service Center,Room 5P 32,"300 E Street, SW",S.W. Washington,DC,20546,(202) 358-0718,(202) 358-4332,foia@hq.nasa.gov,http://www.hq.nasa.gov/office/pao/FOIA/agency/,http://www.hq.nasa.gov/office/pao/FOIA/request.html,
Principal Agency FOIA Officer,National Aeronautics and Space Administration,,Public Liaison,,"300 E Street, SW",S.W. Washington,DC,20546,(202) 358-3642,,,,,
Main Office,National Archives and Records Administration,Joseph Scanlon,"FOIA Officer, Office of the General Counsel",Room 3110,8601 Adelphi Road,College Park,MD,20740,(301) 837-3642,(301) 837-0293,mailto:joseph.scanlon@nara.gov,http://www.archives.gov/foia/index.html,,This agency has additional FOIA contact information that can be found by visiting its website.
Main Office,National Archives and Records Administration,,FOIA Requester Service Center,,,,,,(301) 837-3642,,mailto:foia@nara.gov,,,
Main Office,National Archives and Records Administration,Gary Stern,FOIA Public Liaison,,,,,,(301) 837-2024,,mailto:garym.stern@nara.gov,,,
Office of the Inspector General,National Archives and Records Administration,,FOIA Contact,Room 1300,8601 Adelphi Road,College Park,MD,20740,(301) 837-3000,(301) 837-3197,,http://www.archives.gov/foia/index.html,,
Office of the Inspector General,National Archives and Records Administration,,FOIA Requester Service Center,,,,,,(301) 837-3000,,,,,
Office of the Inspector General,National Archives and Records Administration,John Simms,FOIA Public Liaison,,,,,,(301) 837-3197,,mailto:john.simms@nara.gov,,,
"Accessioned Executive Branch Agency Records - Washington, DC Area",National Archives and Records Administration,Martha W. Murphy,Special Access and FOIA Staff (RD-F),Room 5500,8601 Adelphi Road,College Park,MD,20740,(301) 837-3190,(301) 837-1864,mailto:specialaccess_foia@nara.gov,http://www.archives.gov/foia/index.html,,
"Accessioned Executive Branch Agency Records - Washington, DC Area",National Archives and Records Administration,,FOIA Requester Service Center,,,,,,(301) 837-3190,,,,,
"Accessioned Executive Branch Agency Records - Washington, DC Area",National Archives and Records Administration,Ann Cummings,FOIA Public Liaison,,,,,,(301) 837-1931,,mailto:ann.cummings@nara.gov,,,
National Archives at Atlanta,National Archives and Records Administration,Rob Richards,Director,,57800 Jonesboro Road,Morrow,GA,30260,(770) 968-2100,(770) 968-2547,mailto:atlanta.archives@nara.gov,http://www.archives.gov/atlanta/,,
National Archives at Atlanta,National Archives and Records Administration,,FOIA Requester Service Center,,,,,,(770) 968-2100,,,,,
National Archives at Atlanta,National Archives and Records Administration,Michael Moore,FOIA Public Liaison,,,,,,(770) 968-2485,,mailto:michael.moore@nara.gov,,,
National Archives at Boston,National Archives and Records Administration,Priscilla Foley,Director,Frederick C. Murphy Federal Center,380 Trapelo Road,Waltham,MA,02452-6399,(781) 663-0130,(781) 663-0154,mailto:boston.archives@nara.gov,http://www.archives.gov/boston/,,
National Archives at Boston,National Archives and Records Administration,,FOIA Requester Service Center,,,,,,(781) 663-0130,,,,,
National Archives at Boston,National Archives and Records Administration,Micheal Moore,FOIA Public Liaison,,,,,,(781) 663-0121,,mailto:michael.moore@nara.gov,,,
National Archives at Chicago,National Archives and Records Administration,Douglas Bicknese,Director,,7358 South Pulaski Road,Chicago,IL,60629-5898,(773) 948-9001,(773) 948-9050,mailto:chicago.archives@nara.gov,http://www.archives.gov/chicago/,,
National Archives at Chicago,National Archives and Records Administration,,FOIA Requester Service Center,,,,,,(773) 581-7816,,,,,
National Archives at Chicago,National Archives and Records Administration,Bryan McGraw,FOIA Public Liaison,,,,,,(773) 948-0009,,mailto:bryan.mcgraw@nara.gov,,,
National Archives at Denver,National Archives and Records Administration,Eileen Bolger,Director,,17101 Huron St.,Broomfield,CO,80223,(303) 407-5740,(303) 407-5709,mailto:denver.archives@nara.gov,http://www.archives.gov/denver/,,
National Archives at Denver,National Archives and Records Administration,,FOIA Requester Service Center,,,,,,(303) 407-5740,,,,,
National Archives at Denver,National Archives and Records Administration,Bryan McGraw,FOIA Public Liaison,,,,,,(303) 604-4740,,mailto:bryan.mcgraw@nara.gov,,,
National Archives at Fort Worth,National Archives and Records Administration,Meg Hacker,Director,,1400 John Burgess Drive,Fort Worth,TX,76140,(817) 831-5620,(817) 551-2034,mailto:ftworth.archives@nara.gov,http://www.archives.gov/fort-worth/,,
National Archives at Fort Worth,National Archives and Records Administration,,FOIA Requester Service Center,,,,,,(817) 334-5525,,,,,
National Archives at Fort Worth,National Archives and Records Administration,Bryan McGraw,FOIA Public Liaison,,,,,,(917) 831-5643,,mailto:bryan.mcgraw@nara.gov,,,
National Archives at Kansas City,National Archives and Records Administration,Lori Cox-Paul,Director,,400 West Pershing Road,Kansas City,MO,64108,(816) 268-8000,(816) 268-8038,mailto:kansascity.archives@nara.gov,http://www.archives.gov/kansas-city/,,
National Archives at Kansas City,National Archives and Records Administration,,FOIA Requester Service Center,,,,,,(816) 268-8000,,,,,
National Archives at Kansas City,National Archives and Records Administration,Bryan McGraw,FOIA Public Liaison,,,,,,(816) 268-8017,,mailto:bryan.mcgraw@nara.gov,,,
National Archives at New York City,National Archives and Records Administration,Chris Gushman,Director,3rd Floor,1 Bowling Green,New York,NY,10004,(212) 401-1620,(212) 401-1638,mailto:newyork.archives@nara.gov,http://www.archives.gov/nyc/,,
National Archives at New York City,National Archives and Records Administration,,FOIA Requester Service Center,,,,,,(212) 401-1620,,,,,
National Archives at New York City,National Archives and Records Administration,Michael Moore,FOIA Public Liaison,,,,,,(212) 401-1625,,mailto:michael.moore@nara.gov,,,
National Archives at Philadelphia,National Archives and Records Administration,Leslie Simon,Director,,14700 Townsend Road,Philadelphia,PA,19154-1096,(215) 305-2044,(215) 305-2038,mailto:philadelphia.archives@nara.gov,http://www.archives.gov/philadelphia/,,
National Archives at Philadelphia,National Archives and Records Administration,,FOIA Requester Service Center,,,,,,(215) 305-2044,,,,,
National Archives at Philadelphia,National Archives and Records Administration,Micheal Moore,FOIA Public Liaison,,,,,,(215) 669-9303,,mailto:michael.moore@nara.gov,,,
National Archives at Riverside,National Archives and Records Administration,Gwen Granados,Director,,23123 Cajalco Road,Perris,CA,92570,(951) 956-2000,(951) 956-2049,mailto:riverside.archives@nara.gov,http://www.archives.gov/riverside/,,
National Archives at Riverside,National Archives and Records Administration,,FOIA Requester Service Center,,,,,,(951) 956-2000,,,,,
National Archives at Riverside,National Archives and Records Administration,Michael Moore,FOIA Public Liaison,,,,,,(951) 956-2040,,mailto:michael.moore@nara.gov,,,
National Archives at San Francisco,National Archives and Records Administration,Michelle Bradley,Director,Leo J. Ryan Memorial Federal Bldg,100 Commodore Drive,San Bruno,CA,94066-2350,(650) 238-3501,(650) 238-3510,mailto:sanbruno.archives@nara.gov,http://www.archives.gov/san-francisco/,,
National Archives at San Francisco,National Archives and Records Administration,,FOIA Requester Service Center,,,,,,(650) 238-3501,,,,,
National Archives at San Francisco,National Archives and Records Administration,Michael Moore,FOIA Public Liaison,,,,,,(650) 238-3478,,mailto:michael.moore@nara.gov,,,
National Archives at Seattle,National Archives and Records Administration,Sue Karren,Director,,"6125 Sand Point Way, NE",Seattle,WA,98115-7999,(206) 336-5115,(206) 336-5112,mailto:seattle.archives@nara.gov,http://www.archives.gov/seattle/,,
National Archives at Seattle,National Archives and Records Administration,,FOIA Requester Service Center,,,,,,(206) 336-5115,,,,,
National Archives at Seattle,National Archives and Records Administration,Michael Moore,FOIA Public Liaison,,,,,,(206) 336-5141,,mailto:michael.moore@nara.gov,,,
National Archives at St. Louis,National Archives and Records Administration,Bryan McGraw ,Director,,,,,,(314) 801-9132,,mailto:stlarr.archives@nara.gov,,,
National Archives at St. Louis,National Archives and Records Administration,,FOIA Requester Service Center,,,,,,,,,,,
National Archives at St. Louis,National Archives and Records Administration,William Seibert,FOIA Public Liaison,,,,,,(314) 801-0909,,mailto:bryan.mcgraw@nara.gov,,,
Ronald Reagan Presidential Library,National Archives and Records Administration,Duke Blackwood,Director,,,,,,(800) 410-8354,,,,,
Ronald Reagan Presidential Library,National Archives and Records Administration,Ira Permstein,Supervisory Archivist,,40 Presidential Drive,Simi Valley,CA,93065-0699,(800) 410-8354,(805) 577-4074,mailto:reagan.library@nara.gov,http://www.reaganlibrary.gov,,
Ronald Reagan Presidential Library,National Archives and Records Administration,John Laster,FOIA Public Liaison,,,,,,(202) 357-5200,,mailto:john.laster@nara.gov,,,
George Bush Presidential Library,National Archives and Records Administration,Warren L Finch,Director,,,,,,(979) 691-4000,,,,,
George Bush Presidential Library,National Archives and Records Administration,Deborah Wheeler,Supervisory Archivist,,1000 George Bush Drive,West College Station,TX,77845,(979) 691-4000,(979) 691-4050,mailto:bush.library@nara.gov,http://www.bushlibrary.tamu.edu,,
George Bush Presidential Library,National Archives and Records Administration,John Laster,FOIA Public Liaison,,,,,,(202) 357-5200,,mailto:john.laster@nara.gov,,,
William J. Clinton Presidential Library,National Archives and Records Administration,Terri T Garner,Director,,,,,,(501) 374-4242,,,,,
William J. Clinton Presidential Library,National Archives and Records Administration,Dana Simmons,Supervisory Archivist,,1200 President Clinton Avenue,Little Rock,AR,72201,(501) 374-4242,(501) 244-2883,mailto:clinton.library@nara.gov,http://clinton.library.gov,,
William J. Clinton Presidential Library,National Archives and Records Administration,John Laster,FOIA Public Liaison,,,,,,(202) 357-5200,,mailto:john.laster@nara.gov,,,
George W. Bush Presidential Library,National Archives and Records Administration,Alan C Lowe,Director,,,,,,(214) 346-1650,,,,,
George W. Bush Presidential Library,National Archives and Records Administration,Brooke Clement,Supervisory Archivist,,2943 SMU Blvd,Dallas,TX,75205-2300,(214) 346-1650,(214) 346-1699,mailto:gwbush.library@nara.gov,http://georgewbushlibrary.smu.edu,,
George W. Bush Presidential Library,National Archives and Records Administration,John Laster,FOIA Public Liaison,,,,,,(202) 357-5200,,mailto:john.laster@nara.gov,,,
Presidential Materials Division,National Archives and Records Administration,Stephannie Oriabure,Archivist,Room G-7,"700 Pennsylvania Avenue, NW",Washington,DC,20408-0001,(202) 357-5200,(202) 357-5941,mailto:presidential.materials@nara.gov,http://www.archives.gov/research/vice-presidential-records,,
Presidential Materials Division,National Archives and Records Administration,John Laster,FOIA Public Liaison,,,,,,(202) 357-5200,,mailto:john.laster@nara.gov,,,
I don't know which office,National Archives and Records Administration,Joseph Scanlon,"FOIA Officer, Office of the General Counsel",Room 3110,8601 Adelphi Road,College Park,MD,20740,(301) 837-3642,(301) 837-0293,mailto:foia@nara.gov,http://www.archives.gov/foia/index.html,,
I don't know which office,National Archives and Records Administration,,FOIA Requester Service Center,,,,,,(301) 837-3642,,mailto:foia@nara.gov,,,
I don't know which office,National Archives and Records Administration,Gary Stern,FOIA Public Liaison,,,,,,(301) 837-2024,,mailto:garym.stern@nara.gov,,,
National Capital Planning Commission,National Capital Planning Commission,Anne R. Schuyler,Chief FOIA Officer,"North Lobby, Suite 500","401 9th Street, NW",Washington,DC,20004,(202)-482-7223,(202) 482-7272,anne.schuyler@ncpc.gov,http://www.ncpc.gov/ncpc/FooterPages/PrivacyFOIADisclosure.html,,
National Capital Planning Commission,National Capital Planning Commission,,FOIA Requester Service Center,,,,,,,,info@ncpc.gov,,,
National Capital Planning Commission,National Capital Planning Commission,Deborah B. Young,FOIA Public Liaison,,,,,,(202)-482-7228,,mailto:Deborah.Young@ncpc.gov,,,
Main Office,National Credit Union Administration,Regina Metz,FOIA Officer / Senior Staff Attorney,,1775 Duke Street,Alexandria,VA,22314,(703) 518-6540,(703) 518-6569,mailto:FOIA@ncua.gov,http://www.ncua.gov/Resources/FOIA/Pages/default.aspx,,
Main Office,National Credit Union Administration,Charles Smith,FOIA Requester Service Center / Program Specialist ,,,,,,(703) 518-6540,,,,,
Main Office,National Credit Union Administration,Linda Dent,FOIA Public Liaison / Associate General Counsel,,,,,,(703) 518-6540,(703) 518-6569,,,,
Office of the Inspector General,National Credit Union Administration,Sharon Separ,Counsel to the Inspector General / Assistant IG for Investigations,,1775 Duke Street,Alexandria,VA,22314,(703) 518-6350,703-518-6349,mailto:oigmail@ncua.gov ,http://www.ncua.gov/Resources/FOIA/Pages/default.aspx,,
Office of the Inspector General,National Credit Union Administration,,FOIA Requester Service Center ,,,,,,(703) 518-6350,703-518-6349,,,,
Office of the Inspector General,National Credit Union Administration,,FOIA Public Liaison ,,,,,,(703) 518-6350,703-518-6349,,,,
National Endowment for the Arts,National Endowment for the Arts,Desiree Flippins,FOIA Officer,2049,"400 7th Street, SW ",Washington,DC ,20506,(202) 682-5418,(202) 682-5572,mailto:foia@arts.gov,http://www.arts.gov/about/FOIA/index.html,,
National Endowment for the Arts,National Endowment for the Arts,,FOIA Requester Service Center,,,,,,(202) 682-5418,,,,,
National Endowment for the Arts,National Endowment for the Arts,,FOIA Public Liaison,,,,,,(202) 682-5418,,,,,
National Endowment for the Humanities,National Endowment for the Humanities,Katherine Griffin,Principal FOIA Contact, Room 4060,400 7th Street SW,Washington,DC ,20506,(202) 606-8322,(202) 606-8600,gencounsel@neh.gov,http://www.neh.gov/about/foia,http://www.neh.gov/about/foia/submit-request-online,
National Endowment for the Humanities,National Endowment for the Humanities,,FOIA Requester Service Center,,,,,,(202) 606-8322,(202) 606-8600,mailto:gencounsel@neh.gov,,,
National Endowment for the Humanities,National Endowment for the Humanities,Lisette Voyatzis,FOIA Public Liaison,,,,,,(202) 606-8322,,mailto:evoyatzis@neh.gov,,,
National Indian Gaming Commission,National Indian Gaming Commission,AnDrea Choate',FOIA/PA and  Records Management Assistant,,"National Indian Gaming Commission C/O Department of the Interior, 1849 C Street, N.W., Mail Stop #1621",Washington,DC ,20240,(202) 632-7003,(202) 632-7066,,http://www.nigc.gov/Reading_Room/Freedom_of_Information_Act.aspx,,
National Indian Gaming Commission,National Indian Gaming Commission,,FOIA Requester Service Center,,,,,,(202) 632-7003,,,,,
National Indian Gaming Commission,National Indian Gaming Commission,AnDrea Choate',FOIA Public Liaison,,,,,,(202) 632-7003,,Andrea_Choate@nigc.gov,,,
National Labor Relations Board,National Labor Relations Board,Deirdre MacNeil,FOIA Officer,4006,"1015 Half Street, S.E. ",Washington,DC,20570,(202) 273-3842,(202) 273-3642,,http://www.nlrb.gov/FOIA/,http://www.nlrb.gov/e-foia-request-form,This agency has additional FOIA contact information that can be found by visiting its website.
National Labor Relations Board,National Labor Relations Board,,FOIA Requester Service Center,4006,"1015 Half Street, S.E. ",Washington,DC,20570,(202) 273-1991,,,,,
National Labor Relations Board,National Labor Relations Board,Diane L. Bridge,FOIA Public Liaison,4006,"1015 Half Street, S.E. ",Washington,DC,20570,(202) 273-3851,,,,,
National Mediation Board,National Mediation Board,Mary L. Johnson,General Counsel,Suite 250E,"1301 K Street, NW",Washington,DC ,20005,(202) 692-5040,(202) 692-5085,,http://www.nmb.gov/publicinfo/foia.html,,
National Mediation Board,National Mediation Board,Tonya Kirksey,FOIA Requester Service Center,,,,,,(202) 692-5040,,,,,
National Mediation Board,National Mediation Board,Angela Heverling,FOIA Public Liaison,,,,,,(202) 692-5040,,heverling@nmb.gov,,,
National Science Foundation,National Science Foundation,Sandra Evans,FOIA Officer,Suite 1265,4201 Wilson Boulevard,Arlington,VA,22230,(703) 292-8060,(703)292-9242,mailto:foia@nsf.gov,http://www.nsf.gov/policies/foia.jsp,,
National Science Foundation,National Science Foundation,Julie Beglin,FOIA Requester Service Center,Suite 1265,4201 Wilson Boulevard,Arlington,VA,22230,(703) 292-8060,(703)292-9242,foia@nsf.gov,,,
National Science Foundation,National Science Foundation,Erin Dawson,FOIA Public Liaison,Suite 1265,4201 Wilson Boulevard,Arlington,VA,22230,(703) 292-8060,(703)292-9242,mailto:edawson@nsf.gov,,,
National Transportation Safety Board,National Transportation Safety Board,Melba D. Moye,"Chief, Records Management Division",CIO-40,"490 L'Enfant Plaza, SW",Washington,DC ,20594,(202) 314-6540,(240) 752-6257,mailto:foia@ntsb.gov,http://www.ntsb.gov/about/foia/Pages/default.aspx,https://foiarequest.ntsb.gov/palMain.aspx,
National Transportation Safety Board,National Transportation Safety Board,,FOIA Requester Service Center,,,,,,(202) 314-6540,,,,,
National Transportation Safety Board,National Transportation Safety Board,Melba D. Moye,FOIA Public Liaison,,,,,,(202) 314-6540,,,,,
Nuclear Regulatory Commission,Nuclear Regulatory Commission,Roger Andoh,FOIA Officer,,Mail Stop T5-F09,Washington,DC,20555-0001,(301) 415-7169,(301) 415-5130,mailto:FOIA.resource@nrc.gov,http://www.nrc.gov/reading-rm/foia/foia-privacy.html,,
Nuclear Regulatory Commission,Nuclear Regulatory Commission,,FOIA Requester Service Center,,,,,,(301) 415-7169,,,,,
Nuclear Regulatory Commission,Nuclear Regulatory Commission,Pat Hirsch,FOIA Public Liaison,Mail Stop T5-F509,11545 Rockville Pike,Rockville,MD,20852,(301) 415-0563,,mailto:Donna.Sealing@nrc.gov,,,
Occupational Safety and Health Review Commission,Occupational Safety and Health Review Commission,FOIA Requester Service Center,,9th Floor,"1120 20th Street, NW",Washington,DC ,20036-3457,(202) 606-5724,(202) 606-5417,oshrc_foia@oshrc.gov,http://www.oshrc.gov/foia/index.html,http://www.oshrc.gov/foia/index.html,
Occupational Safety and Health Review Commission,Occupational Safety and Health Review Commission,FOIA Requester Service Center,,9th Floor,"1120 20th Street, NW",Washington,DC ,20036-3457,(202) 606-5724,(202) 606-5417,oshrc_foia@oshrc.gov,http://www.oshrc.gov/foia/index.html,,
Occupational Safety and Health Review Commission,Occupational Safety and Health Review Commission,Noelle Chadwick,FOIA Public Liaison,9th Floor,"1120 20th Street, NW",Washington,DC ,20036-3457,(202) 606-5724,(202) 606-5417,oshrc_foia@oshrc.gov,http://www.oshrc.gov/foia/index.html,,
Office of the Director of National Intelligence,Office of the Director of National Intelligence,Jennifer Hudson,"Director, Information Management Office",,,Washington ,DC ,20511,(703) 874-8500,(703) 874-8910,mailto:dni-foia@dni.gov,http://www.dni.gov/foia.htm,,
Office of the Director of National Intelligence,Office of the Director of National Intelligence,,FOIA Requester Service Center,,,,,,(703) 874-8500,,,,,
Office of the Director of National Intelligence,Office of the Director of National Intelligence,Jennifer Hudson,FOIA Public Liaison,,,,,,(703) 874-8500,,,,,
Office of Government Ethics,Office of Government Ethics,Rachel K. Dowell,OGE FOIA Officer,Suite 500,"1201 New York Avenue, NW",Washington,DC ,20005-3917,(202) 482-9267,(202) 482-9237,mailto:usoge@oge.gov,http://www.oge.gov/FOIA-and-Privacy-Act/Freedom-of-Information-Act/The-Freedom-of-Information-Act/,,
Office of Government Ethics,Office of Government Ethics,,FOIA Requester Service Center,,,,,,(202) 482-9267,,,,,
Office of Government Ethics,Office of Government Ethics,,FOIA Public Liaison,,,,,,(202) 482-9267,,,,,
Office of Navajo and Hopi Indian Relocation,Office of Navajo and Hopi Indian Relocation,Scott Kuhr,Freedom of Information/Privacy Act Officer,P.O. Box KK,201 E. Birch Avenue,Flagstaff,AZ,86002,"(928) 779-2727, ext. 145",(978) 774-1977,,http://onhir.gov/,,
Office of Navajo and Hopi Indian Relocation,Office of Navajo and Hopi Indian Relocation,,FOIA Requester Service Center,,,,,,"(928) 779-2727, ext. 145",,,,,
Office of Navajo and Hopi Indian Relocation,Office of Navajo and Hopi Indian Relocation,Lawrence A. Ruzzow,FOIA Public Liaison,,,,,,(928) 779-2721,,mailto:eligilility@onhir.gov,,,
Office of Personnel Management,Office of Personnel Management,Trina Porter,FOIA Requester Service Center,Room 4458,"1900 E Street, NW",Washington,DC,20415-7900,(202) 606-4417,,mailto:foia@opm.gov,http://www.opm.gov/information-management/freedom-of-information-act,,
Office of Personnel Management,Office of Personnel Management,,FOIA Requester Service Center,,,,,,(202) 606-3642,,,,,
Office of Personnel Management,Office of Personnel Management,Trina Porter,FOIA Public Liaison,,,,,,(202) 606-4417,,,,,
Office of Special Counsel,Office of Special Counsel,Christopher Kurt,FOIA Officer,Suite 218,"1730 M Street, NW",Washington,DC,20036-4505,(202) 254-3716,(202) 254-3711,ckurt@osc.gov,https://osc.gov/Pages/FOIA-Resources.aspx,https://osc.gov/Pages/FOIA-Resources.aspx,
Office of Special Counsel,Office of Special Counsel,Christopher Kurt,FOIA Requester Service Center,Suite 218,"1730 M Street, NW",Washington,DC,20036-4505,(202) 254-3716,(202) 254-3711,ckurt@osc.gov,https://osc.gov/Pages/FOIA-Resources.aspx,https://osc.gov/Pages/FOIA-Resources.aspx,
Office of Special Counsel,Office of Special Counsel,Dawn Kral,FOIA Public Liaison,Suite 218,"1730 M Street, NW",Washington,DC,20036-4505,(202) 254-3636,(202) 254-3711,dkral@osc.gov,https://osc.gov/Pages/FOIA-Resources.aspx,https://osc.gov/Pages/FOIA-Resources.aspx,
Overseas Private Investment Corporation,Overseas Private Investment Corporation,Nichole Skoyles,FOIA Director,,"1100 New York Avenue, NW",Washington,DC,20527,(202) 336-8400,,mailto:FOIA@opic.gov,http://www.opic.gov/publications/foia,,
Overseas Private Investment Corporation,Overseas Private Investment Corporation,,FOIA Requester Service Center,,,,,,(202) 336-8400,,,,,
Overseas Private Investment Corporation,Overseas Private Investment Corporation,Nichole Skoyles,FOIA Public Liaison,,,,,,(202) 336-8400,,,,,
Main Office,Peace Corps,Denora Miller,"FOIA/Privacy Act Officer, Office of Management",,"1111 20th Street, NW",Washington,DC,20526-0001,(202) 692-1236,(202) 692-1385,mailto:foia@peacecorps.gov,http://www.peacecorps.gov/index.cfm?shell=about.policies.foia,https://cwppc.secureprtportal.com/,
Main Office,Peace Corps,,FOIA Requester Service Center,,,,,,(202) 692-1236,,,,,
Main Office,Peace Corps,Denora Miller,FOIA Public Liaison,,,,,,(202) 692-1236,,,,,
Office of the Inspector General,Peace Corps,Jeffrey Reichert,FOIA Contact,,"1111 20th Street, NW",Washington,DC,20526-0001,(202) 692-2922,,mailto:foia@peacecorps.gov,http://www.peacecorps.gov/index.cfm?shell=about.policies.foia,,
Office of the Inspector General,Peace Corps,,FOIA Requester Service Center,,,,,,(202) 692-2922,,,,,
Office of the Inspector General,Peace Corps,Jeffrey Reichert,FOIA Public Liaison,,,,,,(202) 692-2922,,,,,
Pension Benefit Guaranty Corporation,Pension Benefit Guaranty Corporation,D. Camilla Perry,Disclosure Officer,Suite 11101,"1200 K Street, NW",Washington,DC,20005,(202) 326-4040,(202) 326-4042,,http://www.pbgc.gov/about/foia.html,,
Pension Benefit Guaranty Corporation,Pension Benefit Guaranty Corporation,,FOIA Requester Service Center,,,,,,(202) 326-4040,,,,,
Pension Benefit Guaranty Corporation,Pension Benefit Guaranty Corporation,Michelle Y. Chase,FOIA Public Liaison,,,,,,(202) 326-4040,,mailto:Chase.Michelle@pbgc.gov,,,
Postal Regulatory Commission,Postal Regulatory Commission,Ruth Ann Abrams,Assistant Secretary,Suite 200 West,"901 New York Avenue, NW",Washington,DC,20268,(202) 789-6843,(202) 789-6891,ruth.a.abrams@prc.gov,http://www.prc.gov/foia,http://www.prc.gov/foia/onlinerequest,
Postal Regulatory Commission,Postal Regulatory Commission,,FOIA Requester Service Center,,,,,,(202) 789-6800,,,,,
Postal Regulatory Commission,Postal Regulatory Commission,Jennie L. Jbara,FOIA Public Liaison,Suite 200 West,"901 New York Avenue, NW",Washington,DC,20268,(202)-789-6865,,jennie.jbara@prc.gov,,,
Privacy and Civil Liberties Oversight Board,Privacy and Civil Liberties Oversight Board,,FOIA Contact,Suite 500,"2100 K Street, NW",Washington,DC,20427,(202) 331-1986,(202) 296-4395,mailto:foia@pclob.gov,https://www.pclob.gov/contacts.html,,
Privacy and Civil Liberties Oversight Board,Privacy and Civil Liberties Oversight Board,,FOIA Requester Service Center,,,,,,(202) 331-1986,(202) 296-4395,mailto:foia@pclob.gov,,,
Privacy and Civil Liberties Oversight Board,Privacy and Civil Liberties Oversight Board,,FOIA Public Liaison,,,,,,(202) 331-1986,(202) 296-4395,mailto:foia@pclob.gov,,,
Main Office,Railroad Retirement Board,Eric Wooden,FOIA Officer,,844 North Rush Street,Chicago,IL,60611-2092,(312) 751-4936,(312) 751-7102,,http://www.rrb.gov/blaw/foia/foia.asp,https://secure.rrb.gov/efoia/,
Main Office,Railroad Retirement Board,,FOIA Requester Service Center,,,,,,(312) 751-4948,,,,,
Main Office,Railroad Retirement Board,Marguerite P. Dadabo,FOIA Public Liaison,,,,,,(312) 751-4936,,,,,
Office of the Inspector General,Railroad Retirement Board,,Freedom of Information Officer,Room 450,844 North Rush Street,Chicago,IL,60611-2092,(312) 751-4350,,,http://www.rrb.gov/blaw/foia/foia.asp,https://secure.rrb.gov/efoia/,
Office of the Inspector General,Railroad Retirement Board,,FOIA Requester Service Center,,,,,,(312) 751-4350,,,,,
Office of the Inspector General,Railroad Retirement Board,,FOIA Public Liaison,,,,,,(312) 751-4350,,,,,
Securities and Exchange Commission,Securities and Exchange Commission,John Livornese,"FOIA Officer, Office of FOIA Services",Mail Stop 2465,"100 F Street, NE",Washington,DC,20549-2736,(202) 551-7900,(202) 772-9337,mailto:foiapa@sec.gov,http://www.sec.gov/foia.shtml,https://tts.sec.gov/cgi-bin/request_public_docs,
Securities and Exchange Commission,Securities and Exchange Commission,,FOIA Requester Service Center,,,,,,(202) 551-7900,,,,,
Securities and Exchange Commission,Securities and Exchange Commission,"John Livornese, Lizzette Katilius, David Henshall, Jeffrey Ovall and Ray McInerney",FOIA Public Liaison,,,,,,(202) 551-7900,,,,,
Selective Service System,Selective Service System,Betty Lou Wingo,FOIA Officer,National Headquarters,,Arlington ,VA,22209-2425,(703) 605-4100,(703) 605-4106,Information@sss.gov,www.sss.gov,,
Selective Service System,Selective Service System,Richard Flahavan,FOIA Requester Service Center,National Headquarters,,Arlington ,VA,22209-2425,(703) 605-4100,(703)605-4106,Information@sss.gov,www.sss.gov,,
Selective Service System,Selective Service System,Richard Flahavan,FOIA Public Liaison,National Headquarters,,Arlington ,VA,22209-2425,(703) 605-4100,(703)605-4106,Information@sss.gov,www.sss.gov,,
Small Business Administration,Small Business Administration,Laura L. Magere,"Chief, Office of FOI/PA",,"409 3rd Street, SW",Washington,DC,20416,(202) 401-8203,(202) 205-7059,mailto:foia@sba.gov,www.sba.gov/foia,https://foiaonline.regulations.gov/foia/action/public/home,This agency has additional FOIA contact information that can be found by visiting its website.
Small Business Administration,Small Business Administration,,FOIA Requester Service Center,,,,,,(202) 401-8203,,,,,
Small Business Administration,Small Business Administration,Laura L. Magere,FOIA Public Liaison,,,,,,(202) 401-8203,,,,,
Social Security Administration,Social Security Administration,Mary Ann Zimmerman,Acting Principal Public FOIA Liaison,"Office of the General Counsel, Office of Privacy and Disclosure",617 Altmeyer Building,Baltimore,MD,21235,(410) 965-1727,(410) 966-0869,,http://www.ssa.gov/foia/,https://secure.ssa.gov/apps9/eFOIA-FEWeb/internet/main.jsp?action=OPD,
Social Security Administration,Social Security Administration,"Keisha Mahoney, Pamela J. Carcirieri","FOIA Requester Service Center, Office of Privacy & Disclosure",,,,,,(410) 965-1727,,,,,
Social Security Administration,Social Security Administration,Chip Mitchell,"FOIA Requester Service Center, Office of Central Operations, Division of Earnings Records Operations",,,,,,(410) 965-1727,,,,,
Social Security Administration,Social Security Administration,Debbie Verzi,Acting FOIA Public Liaison,,,,,,(410) 965-1727,,mailto:Foia.pa.officers@ssa.gov,,,
Special Inspector General for Afghanistan Reconstruction,Special Inspector General for Afghanistan Reconstruction,FOIA Contact,"Office of Privacy, Records and Disclosure",,2530 Crystal Drive,Arlington,VA,22202,(703) 545-6046,,mailto:sigar.pentagon.gen-coun.mbx.foia@mail.mil,,http://www.sigar.mil/contact/foia/privacy-request.aspx,
Special Inspector General for Afghanistan Reconstruction,Special Inspector General for Afghanistan Reconstruction,,FOIA Requester Service Center,,,,,,(703) 545-6046,,,,,
Special Inspector General for Afghanistan Reconstruction,Special Inspector General for Afghanistan Reconstruction,,FOIA Public Liaison,,,,,,(703) 545-6046,,,,,
Surface Transportation Board,Surface Transportation Board,Marilyn R. Levitt,FOIA/Privacy Act Officer,1266,"395 E Street, SW",Washington,DC,20423-0001,(202) 245-0269,(202) 245-0460,mailto:FOIA.Privacy@stb.dot.gov,http://www.stb.dot.gov/stb/foia.html,,
Surface Transportation Board,Surface Transportation Board,Marilyn R. Levitt,FOIA Requester Service Center,,,,,,,,,,,
Surface Transportation Board,Surface Transportation Board,Craig Keats,FOIA Public Liaison,1272,,,,,(202) 245-0264,,mailto:keatsc@stb.dot.gov,,,
Tennessee Valley Authority,Tennessee Valley Authority,Denise Smith,TVA FOIA Officer,WT 7D,400 West Summit Hill Drive,Knoxville,TN,37902-1499,(865) 632-6945,(865) 632-6901,,http://www.tva.gov/foia/,,
Tennessee Valley Authority,Tennessee Valley Authority,,FOIA Requester Service Center,,,,,,(865) 632-6945,,mailto:foia@tva.gov,,,
Tennessee Valley Authority,Tennessee Valley Authority,"Wilson Taylor, III",FOIA Public Liaison,,,,,,(865) 632-8133,(865) 632-9393,,,,
U.S. Access Board,U.S. Access Board,Lisa Fairhall,FOIA Officer/Deputy General Counsel,Suite 1000,"1331 F Street, NW",Washington ,DC,20004,202-272-0046,202-272-0081,FOIA@access-board.gov,www.access-board.gov,n/a,
U.S. Access Board,U.S. Access Board,,FOIA Requester Service Center,,,,,,202-272-0046,,,,,
U.S. Access Board,U.S. Access Board,Lisa Fairhall,FOIA Public Liaison,,,,,,202-272-0046,,,,,
United States African Development Foundation,United States African Development Foundation,June B. Brown,"FOIA Contact, Associate General Counsel",,"1400 Eye Street, NW",Washington,DC,20005-2248,(202) 673-3916,(202) 673-3810,,http://www.usadf.gov/OpenGovernment.html,,
United States African Development Foundation,United States African Development Foundation,,FOIA Requester Service Center,,,,,,(202) 673-3916,,,,,
United States African Development Foundation,United States African Development Foundation,,FOIA Public Liaison,,,,,,(202) 673-3916,,,,,
United States Copyright Office,United States Copyright Office,"William J. Roberts, Jr.",Associate Register of Copyrights and Director of Public Information & Education,,P.O. Box 70400,Washington,DC,20024,(202) 707-6800,(202) 707-6859,copfoia@loc.gov,http://www.copyright.gov/foia/,,
United States Copyright Office,United States Copyright Office,Alicia Mroczyk,FOIA Requester Service Center,,P.O. Box 70400,Washington,DC,20024,(202) 707-6800,(202) 707-6859,copfoia@loc.gov,http://www.copyright.gov/foia/,,
United States Copyright Office,United States Copyright Office,George Thuronyi,Public Liaison,,P.O. Box 70400,Washington,DC,20024,(202) 707-6800,(202) 707-6859,copfoia@loc.gov,http://www.copyright.gov/foia/,,
United States International Boundary and Water Commission,United States International Boundary and Water Commission,Rebecca Rizzuti,FOIA Officer & Public Liaison,"FOIA - Legal Office, Suite C100",4171 N. Mesa,El Paso,TX,79902,(915) 832-4729,915-600-7397,mailto:rebecca.rizzuti@ibwc.gov,http://www.ibwc.gov/Organization/FOIA.html,"http://www.ibwc.gov/Organization/FOIA.html#How",
United States International Boundary and Water Commission,United States International Boundary and Water Commission,Rebecca Rizzuti,FOIA Requester Service Center,"FOIA - Legal Office, Suite C101",4171 N. Mesa,El Paso,TX,79902,(915) 832-4729,915-600-7397,mailto:rebecca.rizzuti@ibwc.gov,http://www.ibwc.gov/Organization/FOIA.html,"http://www.ibwc.gov/Organization/FOIA.html#How",
United States International Boundary and Water Commission,United States International Boundary and Water Commission,Rebecca Rizzuti,FOIA Public Liaison,"FOIA - Legal Office, Suite C102",4171 N. Mesa,El Paso,TX,79902,(915) 832-4729,915-600-7397,mailto:rebecca.rizzuti@ibwc.gov,http://www.ibwc.gov/Organization/FOIA.html,"http://www.ibwc.gov/Organization/FOIA.html#How",
United States International Trade Commission,United States International Trade Commission,Lisa R. Barton,Chief FOIA Officer,112-AA,"500 E Street, SW",Washington,DC,20436,(202) 205-2595,(202) 205-2104,lisa.barton@usitc.gov,http://www.usitc.gov/secretary/foia/index.htm,http://pubapps.usitc.gov/applications/foia/request.asp,
United States International Trade Commission,United States International Trade Commission,,FOIA Requester Service Center,,,,,,(202) 205-2595,,,,,
United States International Trade Commission,United States International Trade Commission,Jacqueline N. Gross,FOIA Public Liaison,112-AA,"500 E Street, SW",Washington,DC,20436,(202) 205-1816,(202) 205-2104,jackie.gross@usitc.gov,,,
USPS Headquarters Office,United States Postal Service,FOIA Contact,Deputy Chief FOIA Officer,Room IP830,"475 L'Enfant Plaza, SW",Washington,DC,20260-1101,(202) 268-2608,(202) 268-5353,,http://www.usps.com/foia/welcome.htm,https://pfoiapal.usps.com/palMain.aspx,
USPS Headquarters Office,United States Postal Service,,FOIA Requester Service Center-HQ,,,,,,(202) 268-2608,,,,,
USPS Headquarters Office,United States Postal Service,Jane Eyre,FOIA Public Liaison,,,,,,(202) 268-2608,,,,,
USPS Field Office,United States Postal Service,FOIA Contact,St. Louis General Law Service Center,Room 2400,1720 Market Street,St. Louis,MO,63155-9948,(314) 345-5894,(650) 578-4956,,http://www.usps.com/foia/welcome.htm,https://pfoiapal.usps.com/palMain.aspx,
USPS Field Office,United States Postal Service,,FOIA Requester Service Center-Field,,,,,,(314) 345-5894,,,,,
USPS Field Office,United States Postal Service,Linda Crump,FOIA Public Liaison,,,,,,(314) 345-5894,,,,,
Postal Inspection Service,United States Postal Service,FOIA Contact,Office of Counsel,Room 3301,"475 L'Enfant Plaza, SW",Washington,DC,20260-2101,(202) 268-7004,(202) 268-4538,,http://www.usps.com/foia/welcome.htm,https://pfoiapal.usps.com/palMain.aspx,
Postal Inspection Service,United States Postal Service,,FOIA Requester Service Center,,,,,,(202) 268-7004,,,,,
Postal Inspection Service,United States Postal Service,Tammy Warner,Acting FOIA Public Liaison,,,,,,(202) 268-7004,,,,,
Office of the Inspector General,United States Postal Service,FOIA Contact,FOIA Contact,Suite 10000,1735 North Lynn Street,Arlington ,VA,22209-2020,(703) 248-2100,(703) 248-4626,mailto:FOIA@uspsoig.gov,http://www.uspsoig.gov/foia.htm,https://pfoiapal.usps.com/palMain.aspx,
Office of the Inspector General,United States Postal Service,,FOIA Requester Service Center,,,,,,(703) 248-2100,,,,,
Office of the Inspector General,United States Postal Service,Paul Maloney,FOIA Public Liaison,,,,,,(703) 248-2100,,,,,
United States Trade and Development Agency,United States Trade and Development Agency,William Langer,FOIA Contact,Suite 1600,1000 Wilson Boulevard,Arlington,VA,22209-3901,(703) 875-4357,(703) 875-4009,wlanger@ustda.gov,http://www.ustda.gov/pubs/foia/,,
United States Trade and Development Agency,United States Trade and Development Agency,,FOIA Requester Service Center,,,,,,(703) 875-5578,,,,,
United States Trade and Development Agency,United States Trade and Development Agency,William Langer,FOIA Public Liaison,,,,,,(703) 875-4357,,,,,
